{"type":"FeatureCollection","features":[{"type":"Feature","id":"Departamento.482","geometry":{"type":"MultiPolygon","coordinates":[[[[-61.740169,-38.628306],[-61.740124,-38.629071],[-61.739851,-38.6296],[-61.739029,-38.630442],[-61.738615,-38.631127],[-61.738414,-38.631634],[-61.738292,-38.632079],[-61.738664,-38.632418],[-61.739226,-38.632766],[-61.739177,-38.633189],[-61.73955,-38.63361],[-61.740195,-38.633955],[-61.74005,-38.63449],[-61.73905,-38.634477],[-61.738593,-38.634773],[-61.738541,-38.635112],[-61.738811,-38.635664],[-61.739045,-38.636166],[-61.739024,-38.636617],[-61.73932,-38.637029],[-61.739812,-38.637252],[-61.739816,-38.637665],[-61.739593,-38.638059],[-61.739264,-38.638482],[-61.739033,-38.63857],[-61.738629,-38.638656],[-61.738036,-38.638524],[-61.737839,-38.638416],[-61.737624,-38.638547],[-61.737519,-38.638851],[-61.737425,-38.639237],[-61.73725,-38.639394],[-61.737001,-38.639377],[-61.736926,-38.639245],[-61.736841,-38.639064],[-61.736677,-38.638982],[-61.736431,-38.638956],[-61.73622,-38.638998],[-61.735884,-38.639202],[-61.73559,-38.63938],[-61.735101,-38.63971],[-61.734503,-38.639819],[-61.734063,-38.639747],[-61.733225,-38.640218],[-61.732859,-38.640608],[-61.732413,-38.640744],[-61.731995,-38.640964],[-61.731746,-38.641375],[-61.731538,-38.641633],[-61.731143,-38.641899],[-61.730667,-38.642125],[-61.730227,-38.642421],[-61.729949,-38.642774],[-61.729815,-38.643116],[-61.729502,-38.643409],[-61.728869,-38.643333],[-61.728276,-38.643424],[-61.727624,-38.643579],[-61.727357,-38.643867],[-61.727252,-38.644329],[-61.727031,-38.644758],[-61.727042,-38.645696],[-61.726774,-38.646309],[-61.726695,-38.646858],[-61.726784,-38.647534],[-61.72685,-38.648206],[-61.727097,-38.648956],[-61.727334,-38.649578],[-61.727408,-38.64996],[-61.726983,-38.650214],[-61.727019,-38.65085],[-61.726996,-38.651273],[-61.727358,-38.651555],[-61.727322,-38.651825],[-61.727022,-38.652293],[-61.726891,-38.652821],[-61.72695,-38.653272],[-61.727233,-38.653753],[-61.727614,-38.654057],[-61.728013,-38.654331],[-61.727929,-38.654661],[-61.727743,-38.655023],[-61.727637,-38.655357],[-61.727289,-38.655621],[-61.727417,-38.655877],[-61.72777,-38.656128],[-61.728235,-38.656172],[-61.728497,-38.656386],[-61.728623,-38.656766],[-61.728493,-38.657082],[-61.728625,-38.657485],[-61.728943,-38.65789],[-61.729092,-38.658385],[-61.729483,-38.658854],[-61.729184,-38.659286],[-61.729002,-38.659685],[-61.728796,-38.660275],[-61.728305,-38.661223],[-61.72807,-38.662317],[-61.728039,-38.663154],[-61.728125,-38.663978],[-61.728222,-38.66468],[-61.728744,-38.665178],[-61.728689,-38.665928],[-61.728815,-38.666527],[-61.728789,-38.666783],[-61.728851,-38.666943],[-61.729063,-38.667167],[-61.729329,-38.667515],[-61.729434,-38.668032],[-61.729395,-38.66835],[-61.729398,-38.668608],[-61.729301,-38.668893],[-61.729169,-38.669164],[-61.72884,-38.669331],[-61.728721,-38.669555],[-61.728602,-38.669756],[-61.728693,-38.670059],[-61.728437,-38.670374],[-61.727875,-38.67045],[-61.727619,-38.67074],[-61.726974,-38.670911],[-61.726664,-38.671186],[-61.726606,-38.671534],[-61.725978,-38.671539],[-61.725622,-38.671707],[-61.725505,-38.671991],[-61.725449,-38.672417],[-61.72486,-38.672413],[-61.724556,-38.672696],[-61.724222,-38.673039],[-61.724119,-38.67334],[-61.724386,-38.673614],[-61.723933,-38.673796],[-61.723411,-38.673929],[-61.723023,-38.674169],[-61.722638,-38.674272],[-61.722438,-38.674482],[-61.722265,-38.674729],[-61.722228,-38.674922],[-61.722205,-38.675207],[-61.722619,-38.675498],[-61.722609,-38.675817],[-61.722776,-38.676168],[-61.722746,-38.676516],[-61.722967,-38.676693],[-61.723228,-38.677068],[-61.723717,-38.677302],[-61.724147,-38.677617],[-61.724412,-38.677799],[-61.724783,-38.677947],[-61.724923,-38.678196],[-61.725061,-38.678468],[-61.725143,-38.678716],[-61.725196,-38.678987],[-61.725056,-38.679386],[-61.724859,-38.679942],[-61.724706,-38.680333],[-61.72417,-38.680332],[-61.723784,-38.680607],[-61.723817,-38.680863],[-61.723775,-38.681189],[-61.723962,-38.681349],[-61.724143,-38.681455],[-61.724253,-38.681602],[-61.724093,-38.681833],[-61.72386,-38.68194],[-61.723618,-38.682113],[-61.723806,-38.682315],[-61.724059,-38.68235],[-61.724174,-38.682599],[-61.723869,-38.68288],[-61.723506,-38.682966],[-61.723404,-38.683244],[-61.723796,-38.683536],[-61.723994,-38.683575],[-61.724281,-38.683369],[-61.724623,-38.683305],[-61.724878,-38.683417],[-61.725051,-38.683702],[-61.725162,-38.683951],[-61.725215,-38.684222],[-61.725206,-38.684717],[-61.725144,-38.684987],[-61.725197,-38.685213],[-61.725033,-38.685472],[-61.72501,-38.685647],[-61.725049,-38.68584],[-61.725317,-38.686065],[-61.725515,-38.686328],[-61.725727,-38.686552],[-61.725946,-38.686791],[-61.725776,-38.687026],[-61.725829,-38.687297],[-61.725657,-38.687717],[-61.725847,-38.688027],[-61.7261,-38.6883],[-61.726297,-38.68855],[-61.726407,-38.688844],[-61.726988,-38.688822],[-61.727186,-38.68898],[-61.727066,-38.689243],[-61.726715,-38.689357],[-61.72641,-38.689645],[-61.726773,-38.689959],[-61.727024,-38.69021],[-61.726919,-38.690628],[-61.726913,-38.691047],[-61.726415,-38.691141],[-61.726179,-38.691619],[-61.725906,-38.691845],[-61.725647,-38.692363],[-61.725133,-38.692733],[-61.724595,-38.692395],[-61.724467,-38.692801],[-61.724503,-38.693162],[-61.724479,-38.69351],[-61.724175,-38.693655],[-61.724321,-38.693945],[-61.72435,-38.694597],[-61.724549,-38.695038],[-61.724802,-38.695204],[-61.724936,-38.695435],[-61.724789,-38.695748],[-61.724928,-38.696006],[-61.72519,-38.696281],[-61.725127,-38.696595],[-61.725014,-38.696865],[-61.724823,-38.697343],[-61.724607,-38.69784],[-61.724447,-38.698294],[-61.724199,-38.69889],[-61.723708,-38.699311],[-61.723281,-38.699574],[-61.723409,-38.700007],[-61.723362,-38.700415],[-61.723012,-38.700644],[-61.722805,-38.700896],[-61.722656,-38.701164],[-61.72258,-38.701392],[-61.722803,-38.701702],[-61.722527,-38.702055],[-61.722364,-38.702269],[-61.722198,-38.702512],[-61.722193,-38.702759],[-61.72216,-38.703029],[-61.721926,-38.703382],[-61.722008,-38.703624],[-61.722131,-38.70393],[-61.722157,-38.704131],[-61.722,-38.704404],[-61.721646,-38.704739],[-61.721453,-38.705015],[-61.721276,-38.705463],[-61.72126,-38.705731],[-61.721505,-38.705937],[-61.721834,-38.706132],[-61.721811,-38.706551],[-61.721747,-38.707023],[-61.721325,-38.70734],[-61.72067,-38.707205],[-61.720294,-38.707345],[-61.720205,-38.707665],[-61.720246,-38.707915],[-61.72038,-38.708086],[-61.720895,-38.708296],[-61.720895,-38.708809],[-61.720947,-38.709009],[-61.721196,-38.709409],[-61.720735,-38.709592],[-61.72024,-38.709901],[-61.719746,-38.710105],[-61.719628,-38.710368],[-61.719637,-38.71062],[-61.719089,-38.710832],[-61.718765,-38.711032],[-61.718549,-38.711212],[-61.717782,-38.711326],[-61.717495,-38.711536],[-61.717306,-38.711674],[-61.716869,-38.711916],[-61.716598,-38.712172],[-61.716701,-38.712502],[-61.716497,-38.712627],[-61.716649,-38.713097],[-61.716469,-38.713305],[-61.716461,-38.713678],[-61.715964,-38.713832],[-61.715855,-38.714088],[-61.715449,-38.714316],[-61.715589,-38.71471],[-61.716436,-38.714752],[-61.716709,-38.71517],[-61.716445,-38.715499],[-61.716151,-38.715775],[-61.716572,-38.716202],[-61.716999,-38.716168],[-61.717401,-38.716494],[-61.717571,-38.716586],[-61.718015,-38.716807],[-61.718141,-38.717096],[-61.718103,-38.71738],[-61.718062,-38.717548],[-61.717845,-38.717898],[-61.718273,-38.71816],[-61.718472,-38.718371],[-61.718572,-38.718636],[-61.71854,-38.71889],[-61.718697,-38.719127],[-61.71838,-38.719275],[-61.71859,-38.719684],[-61.719273,-38.719646],[-61.719846,-38.720061],[-61.72036,-38.720246],[-61.720657,-38.720416],[-61.720442,-38.720702],[-61.720553,-38.720992],[-61.720353,-38.721459],[-61.720725,-38.721802],[-61.720892,-38.722045],[-61.7206,-38.722452],[-61.720825,-38.72265],[-61.720678,-38.722871],[-61.720787,-38.723187],[-61.720896,-38.723526],[-61.72095,-38.723615],[-61.720929,-38.723625],[-61.721178,-38.723867],[-61.72146,-38.724163],[-61.721705,-38.724467],[-61.721964,-38.725134],[-61.722189,-38.725452],[-61.722243,-38.72561],[-61.722115,-38.725916],[-61.72233,-38.726203],[-61.722393,-38.726463],[-61.722921,-38.726714],[-61.723482,-38.726666],[-61.723855,-38.726978],[-61.72408,-38.727286],[-61.724105,-38.727467],[-61.723882,-38.727839],[-61.724353,-38.7281],[-61.724621,-38.728394],[-61.724875,-38.728668],[-61.724639,-38.729009],[-61.724536,-38.729164],[-61.725099,-38.72953],[-61.725517,-38.730034],[-61.724906,-38.730542],[-61.7247,-38.731246],[-61.72426,-38.731417],[-61.724028,-38.731864],[-61.723981,-38.732171],[-61.723465,-38.732641],[-61.723031,-38.732865],[-61.723074,-38.733474],[-61.722963,-38.733846],[-61.722642,-38.734004],[-61.722251,-38.734007],[-61.721878,-38.733702],[-61.721285,-38.733441],[-61.720775,-38.733676],[-61.720548,-38.734145],[-61.720447,-38.734737],[-61.720117,-38.735386],[-61.720009,-38.736119],[-61.719615,-38.736704],[-61.719334,-38.737253],[-61.71889,-38.737927],[-61.718607,-38.738542],[-61.718709,-38.739],[-61.719039,-38.739504],[-61.719599,-38.740002],[-61.719522,-38.740964],[-61.719709,-38.741686],[-61.720686,-38.742759],[-61.720717,-38.742978],[-61.720939,-38.743316],[-61.720941,-38.743617],[-61.720864,-38.743961],[-61.720979,-38.744153],[-61.721148,-38.7445],[-61.721408,-38.744833],[-61.721853,-38.745074],[-61.722152,-38.745336],[-61.722391,-38.745561],[-61.722545,-38.745837],[-61.722371,-38.746087],[-61.722131,-38.746432],[-61.722241,-38.746889],[-61.722099,-38.747322],[-61.722078,-38.747758],[-61.722023,-38.748061],[-61.721941,-38.748274],[-61.721781,-38.748641],[-61.721637,-38.748974],[-61.721657,-38.749363],[-61.721731,-38.749627],[-61.722184,-38.749725],[-61.722662,-38.749696],[-61.722507,-38.750079],[-61.722018,-38.750636],[-61.722146,-38.751135],[-61.721973,-38.751526],[-61.721687,-38.751719],[-61.721658,-38.751997],[-61.721917,-38.752233],[-61.721718,-38.752509],[-61.721612,-38.752655],[-61.721689,-38.752981],[-61.721897,-38.753218],[-61.721457,-38.753597],[-61.720714,-38.754095],[-61.719939,-38.754065],[-61.719062,-38.754372],[-61.718611,-38.754839],[-61.718359,-38.75502],[-61.718359,-38.755258],[-61.718239,-38.755307],[-61.717712,-38.755245],[-61.717434,-38.755463],[-61.71743,-38.755748],[-61.717251,-38.755877],[-61.716926,-38.755995],[-61.716434,-38.756239],[-61.716386,-38.756558],[-61.716484,-38.756666],[-61.716471,-38.757056],[-61.716229,-38.757293],[-61.715877,-38.757594],[-61.715471,-38.757738],[-61.715154,-38.758049],[-61.715302,-38.758357],[-61.71542,-38.758876],[-61.715192,-38.759372],[-61.714815,-38.75976],[-61.714009,-38.759811],[-61.713395,-38.760129],[-61.71315,-38.760664],[-61.713255,-38.761107],[-61.71368,-38.761211],[-61.713822,-38.76153],[-61.713964,-38.761726],[-61.713868,-38.761894],[-61.713365,-38.762015],[-61.712947,-38.761841],[-61.712549,-38.761945],[-61.712271,-38.762065],[-61.712089,-38.762336],[-61.712057,-38.762587],[-61.711989,-38.762891],[-61.711915,-38.763539],[-61.711755,-38.763948],[-61.71159,-38.764264],[-61.711462,-38.764582],[-61.711602,-38.764755],[-61.712179,-38.764891],[-61.712631,-38.765102],[-61.712878,-38.76548],[-61.712869,-38.765919],[-61.712738,-38.766423],[-61.712444,-38.767023],[-61.711942,-38.767598],[-61.711443,-38.76842],[-61.711806,-38.768703],[-61.712242,-38.76904],[-61.712236,-38.769291],[-61.711966,-38.769425],[-61.711534,-38.76972],[-61.711324,-38.769856],[-61.710536,-38.77005],[-61.710333,-38.77045],[-61.710346,-38.770687],[-61.71087,-38.770846],[-61.710816,-38.77118],[-61.71061,-38.771533],[-61.71074,-38.771852],[-61.710417,-38.772008],[-61.710423,-38.772254],[-61.710623,-38.772534],[-61.710328,-38.772842],[-61.70958,-38.772703],[-61.709192,-38.773101],[-61.709601,-38.773541],[-61.709355,-38.773973],[-61.708771,-38.7741],[-61.708673,-38.774696],[-61.708616,-38.774991],[-61.708279,-38.775218],[-61.70813,-38.775464],[-61.707867,-38.775731],[-61.707446,-38.776133],[-61.707001,-38.776276],[-61.706891,-38.776748],[-61.706861,-38.777251],[-61.70651,-38.777608],[-61.706149,-38.778116],[-61.705685,-38.778336],[-61.70528,-38.778467],[-61.704878,-38.778417],[-61.70462,-38.778347],[-61.704106,-38.778139],[-61.703554,-38.778216],[-61.703093,-38.778136],[-61.702537,-38.777978],[-61.70236,-38.778406],[-61.702092,-38.778771],[-61.701907,-38.778924],[-61.701443,-38.778716],[-61.701052,-38.778311],[-61.700587,-38.778543],[-61.700267,-38.77916],[-61.699886,-38.77957],[-61.699768,-38.779746],[-61.69969,-38.779978],[-61.69963,-38.780382],[-61.699375,-38.780758],[-61.698965,-38.781158],[-61.698759,-38.781426],[-61.698638,-38.781777],[-61.698544,-38.782181],[-61.698509,-38.782541],[-61.698533,-38.782789],[-61.698842,-38.783197],[-61.699413,-38.783452],[-61.699697,-38.783612],[-61.700238,-38.783956],[-61.70055,-38.784185],[-61.700744,-38.784592],[-61.700852,-38.784999],[-61.700903,-38.785337],[-61.700665,-38.785762],[-61.700571,-38.786202],[-61.700564,-38.786572],[-61.700384,-38.786975],[-61.700262,-38.787379],[-61.700255,-38.787762],[-61.700223,-38.787942],[-61.699814,-38.788298],[-61.699552,-38.788475],[-61.699028,-38.788784],[-61.698824,-38.78894],[-61.698644,-38.789366],[-61.698581,-38.789635],[-61.698717,-38.790064],[-61.698538,-38.790423],[-61.698319,-38.790473],[-61.698162,-38.790509],[-61.697614,-38.79057],[-61.697153,-38.790655],[-61.696661,-38.790785],[-61.696457,-38.790917],[-61.696219,-38.791365],[-61.696042,-38.791611],[-61.695545,-38.792011],[-61.695311,-38.792256],[-61.695245,-38.792683],[-61.695183,-38.792952],[-61.69483,-38.793376],[-61.694854,-38.793671],[-61.694846,-38.794052],[-61.694896,-38.794458],[-61.694863,-38.794705],[-61.694774,-38.794862],[-61.694651,-38.795311],[-61.694525,-38.795662],[-61.694443,-38.79589],[-61.694288,-38.796253],[-61.694265,-38.796489],[-61.694253,-38.796613],[-61.694159,-38.797039],[-61.694124,-38.797377],[-61.694147,-38.79767],[-61.694312,-38.798077],[-61.694564,-38.798485],[-61.694614,-38.798914],[-61.69455,-38.799273],[-61.694601,-38.799589],[-61.69448,-38.799925],[-61.694328,-38.800374],[-61.694121,-38.800665],[-61.69397,-38.801068],[-61.694168,-38.80147],[-61.694137,-38.801752],[-61.69424,-38.80204],[-61.694031,-38.802465],[-61.693822,-38.802868],[-61.693498,-38.803292],[-61.693289,-38.803673],[-61.693053,-38.803985],[-61.69292,-38.804175],[-61.692787,-38.804365],[-61.692578,-38.804813],[-61.692592,-38.805279],[-61.692508,-38.805655],[-61.692294,-38.806036],[-61.692032,-38.806338],[-61.691708,-38.806763],[-61.692039,-38.807262],[-61.692234,-38.807609],[-61.692461,-38.808397],[-61.692567,-38.808551],[-61.693306,-38.809077],[-61.693614,-38.809531],[-61.693836,-38.809984],[-61.69404,-38.810358],[-61.694438,-38.810896],[-61.694781,-38.811235],[-61.695264,-38.811304],[-61.695692,-38.811371],[-61.696037,-38.811627],[-61.696355,-38.811862],[-61.69681,-38.811951],[-61.697911,-38.811942],[-61.698377,-38.811947],[-61.698717,-38.811993],[-61.699123,-38.8122],[-61.699102,-38.812584],[-61.699542,-38.813154],[-61.699729,-38.81338],[-61.699695,-38.813732],[-61.699701,-38.814169],[-61.699816,-38.814608],[-61.699867,-38.814822],[-61.69978,-38.815098],[-61.699721,-38.815373],[-61.69977,-38.816472],[-61.699667,-38.816844],[-61.69943,-38.81713],[-61.698988,-38.817424],[-61.698477,-38.817759],[-61.698282,-38.817992],[-61.698152,-38.818364],[-61.697997,-38.81865],[-61.697706,-38.818849],[-61.697269,-38.818887],[-61.696765,-38.818817],[-61.696419,-38.818852],[-61.696035,-38.818954],[-61.695689,-38.819185],[-61.695521,-38.819418],[-61.695365,-38.819779],[-61.69502,-38.819967],[-61.694593,-38.820176],[-61.694412,-38.820326],[-61.69424,-38.820783],[-61.694154,-38.821006],[-61.693831,-38.821482],[-61.693758,-38.821748],[-61.693751,-38.822153],[-61.693944,-38.822795],[-61.694352,-38.823639],[-61.694345,-38.824022],[-61.694296,-38.824417],[-61.694205,-38.824917],[-61.694035,-38.825256],[-61.693672,-38.825664],[-61.693485,-38.826153],[-61.693221,-38.826459],[-61.692472,-38.827059],[-61.692055,-38.827481],[-61.691668,-38.827754],[-61.691173,-38.827961],[-61.690653,-38.827998],[-61.690369,-38.827856],[-61.689784,-38.827743],[-61.689457,-38.827739],[-61.689039,-38.827877],[-61.688737,-38.828013],[-61.688541,-38.828277],[-61.688275,-38.828616],[-61.687971,-38.828847],[-61.687461,-38.829076],[-61.68694,-38.829198],[-61.686544,-38.829204],[-61.686081,-38.829135],[-61.685469,-38.829053],[-61.684807,-38.829037],[-61.684286,-38.829138],[-61.683167,-38.829125],[-61.682252,-38.829179],[-61.681718,-38.829226],[-61.681223,-38.829413],[-61.680853,-38.829547],[-61.680576,-38.829725],[-61.680505,-38.829906],[-61.680424,-38.829987],[-61.680282,-38.830127],[-61.679961,-38.830267],[-61.679654,-38.830627],[-61.679511,-38.830988],[-61.679504,-38.831318],[-61.679669,-38.832024],[-61.679623,-38.832301],[-61.679509,-38.832534],[-61.679192,-38.832712],[-61.678793,-38.832907],[-61.678159,-38.833023],[-61.677767,-38.833553],[-61.677686,-38.834079],[-61.678178,-38.834651],[-61.678127,-38.834777],[-61.677877,-38.835083],[-61.677767,-38.835344],[-61.677071,-38.835478],[-61.676637,-38.835491],[-61.676224,-38.835285],[-61.675667,-38.835127],[-61.674527,-38.834384],[-61.674173,-38.834263],[-61.673671,-38.834331],[-61.67315,-38.834334],[-61.672775,-38.834412],[-61.672561,-38.834837],[-61.672602,-38.835311],[-61.67275,-38.835538],[-61.672802,-38.836056],[-61.672798,-38.836259],[-61.672779,-38.836495],[-61.672762,-38.836951],[-61.672854,-38.837338],[-61.67301,-38.837804],[-61.672995,-38.83799],[-61.673203,-38.838381],[-61.673248,-38.838866],[-61.673389,-38.839455],[-61.673551,-38.840199],[-61.673839,-38.840706],[-61.674206,-38.841236],[-61.674402,-38.841637],[-61.6743,-38.842177],[-61.673666,-38.842813],[-61.673577,-38.843529],[-61.672951,-38.843979],[-61.67215,-38.844754],[-61.671365,-38.845692],[-61.670264,-38.846145],[-61.668873,-38.846781],[-61.668136,-38.847231],[-61.667866,-38.847482],[-61.667714,-38.847683],[-61.667449,-38.84822],[-61.66689,-38.848664],[-61.666311,-38.84904],[-61.665896,-38.849688],[-61.665424,-38.850066],[-61.665193,-38.850311],[-61.665219,-38.850469],[-61.665235,-38.850778],[-61.665169,-38.85115],[-61.664938,-38.851788],[-61.66449,-38.852228],[-61.66432,-38.852682],[-61.664017,-38.853151],[-61.663741,-38.853807],[-61.663392,-38.854006],[-61.662727,-38.854393],[-61.662286,-38.854833],[-61.661976,-38.855135],[-61.661884,-38.855464],[-61.662566,-38.856215],[-61.662703,-38.856626],[-61.662678,-38.857175],[-61.662432,-38.857758],[-61.662214,-38.85808],[-61.661891,-38.858189],[-61.661694,-38.858321],[-61.66086,-38.859403],[-61.660446,-38.859732],[-61.659707,-38.860078],[-61.659183,-38.860401],[-61.658766,-38.860839],[-61.658064,-38.86114],[-61.657261,-38.861422],[-61.657046,-38.861608],[-61.656469,-38.861646],[-61.656153,-38.861854],[-61.65477,-38.861316],[-61.653836,-38.861502],[-61.653189,-38.861464],[-61.652249,-38.861496],[-61.650798,-38.860967],[-61.650064,-38.861474],[-61.649927,-38.862226],[-61.650191,-38.862953],[-61.650045,-38.863768],[-61.649651,-38.864307],[-61.649618,-38.864756],[-61.650066,-38.865281],[-61.650309,-38.865902],[-61.650303,-38.866186],[-61.650039,-38.866475],[-61.649483,-38.866672],[-61.648991,-38.866801],[-61.648765,-38.866821],[-61.648329,-38.866748],[-61.647667,-38.866763],[-61.647436,-38.866783],[-61.646456,-38.867064],[-61.646109,-38.867128],[-61.645834,-38.867213],[-61.645363,-38.866969],[-61.644983,-38.866042],[-61.644476,-38.86515],[-61.644365,-38.864923],[-61.644241,-38.864819],[-61.643261,-38.864204],[-61.642854,-38.863554],[-61.642341,-38.863012],[-61.641783,-38.862955],[-61.641324,-38.862963],[-61.640924,-38.86303],[-61.64025,-38.863405],[-61.639485,-38.863335],[-61.638435,-38.863912],[-61.63778,-38.864057],[-61.637126,-38.864294],[-61.636665,-38.864784],[-61.63616,-38.865002],[-61.635528,-38.865371],[-61.635204,-38.86597],[-61.635066,-38.866365],[-61.634329,-38.866916],[-61.63435,-38.867368],[-61.634116,-38.868058],[-61.634163,-38.868607],[-61.633906,-38.868963],[-61.633207,-38.869122],[-61.632676,-38.869018],[-61.632325,-38.869198],[-61.632528,-38.869724],[-61.633049,-38.870509],[-61.633418,-38.870816],[-61.633582,-38.871287],[-61.633897,-38.871577],[-61.633671,-38.871783],[-61.633358,-38.871898],[-61.633043,-38.872007],[-61.632778,-38.872072],[-61.632417,-38.87207],[-61.632007,-38.872211],[-61.631342,-38.872042],[-61.630955,-38.871887],[-61.630026,-38.872384],[-61.629467,-38.872323],[-61.629393,-38.872508],[-61.628933,-38.87277],[-61.628757,-38.87297],[-61.628596,-38.873365],[-61.627575,-38.873656],[-61.627187,-38.873695],[-61.626491,-38.874059],[-61.626092,-38.873975],[-61.625884,-38.874063],[-61.625651,-38.874195],[-61.625414,-38.874407],[-61.625148,-38.874742],[-61.625288,-38.875262],[-61.625524,-38.875568],[-61.625767,-38.876181],[-61.62628,-38.876945],[-61.625889,-38.877512],[-61.62572,-38.877993],[-61.625269,-38.878283],[-61.624241,-38.878674],[-61.623864,-38.878998],[-61.623133,-38.87914],[-61.622249,-38.879213],[-61.621305,-38.879357],[-61.620264,-38.879547],[-61.619806,-38.879699],[-61.619129,-38.879742],[-61.618272,-38.879616],[-61.617723,-38.879619],[-61.617236,-38.879815],[-61.616192,-38.8799],[-61.615701,-38.879917],[-61.615123,-38.88001],[-61.614398,-38.88007],[-61.614018,-38.880111],[-61.613657,-38.880105],[-61.61333,-38.880145],[-61.613139,-38.880152],[-61.612547,-38.880154],[-61.611928,-38.880168],[-61.611183,-38.880309],[-61.610219,-38.880253],[-61.60935,-38.880014],[-61.608632,-38.879851],[-61.608282,-38.879916],[-61.60815,-38.880302],[-61.607924,-38.880495],[-61.6074,-38.880612],[-61.606943,-38.880777],[-61.606853,-38.880956],[-61.607114,-38.881228],[-61.6071,-38.881439],[-61.6069,-38.881443],[-61.605681,-38.88117],[-61.60515,-38.881191],[-61.604495,-38.881195],[-61.604045,-38.880984],[-61.603396,-38.880872],[-61.603029,-38.880582],[-61.602704,-38.880449],[-61.602241,-38.880371],[-61.601795,-38.880422],[-61.601187,-38.88047],[-61.600808,-38.880488],[-61.60061,-38.880531],[-61.600304,-38.880969],[-61.600084,-38.881356],[-61.599483,-38.881695],[-61.598692,-38.881864],[-61.598182,-38.881913],[-61.597601,-38.882365],[-61.597184,-38.882622],[-61.595986,-38.882822],[-61.595426,-38.882896],[-61.595,-38.882985],[-61.594189,-38.883502],[-61.594026,-38.883866],[-61.594244,-38.884217],[-61.594195,-38.884611],[-61.593896,-38.884618],[-61.593632,-38.884864],[-61.593571,-38.885168],[-61.593946,-38.885163],[-61.594278,-38.885174],[-61.594345,-38.885633],[-61.594392,-38.885956],[-61.593626,-38.886803],[-61.592209,-38.887327],[-61.591452,-38.887769],[-61.590517,-38.88841],[-61.589853,-38.888695],[-61.588677,-38.889222],[-61.588359,-38.889309],[-61.5875,-38.889488],[-61.58684,-38.889664],[-61.586351,-38.889704],[-61.585635,-38.889781],[-61.585335,-38.889591],[-61.584952,-38.889426],[-61.584539,-38.88949],[-61.583735,-38.889814],[-61.583243,-38.889976],[-61.582973,-38.889961],[-61.582525,-38.889713],[-61.582216,-38.889413],[-61.581754,-38.889314],[-61.581472,-38.889272],[-61.581027,-38.889084],[-61.580578,-38.888741],[-61.580082,-38.888484],[-61.579642,-38.888284],[-61.579441,-38.888282],[-61.57906,-38.888367],[-61.578821,-38.888566],[-61.578314,-38.889092],[-61.577447,-38.88993],[-61.57693,-38.890605],[-61.576084,-38.891389],[-61.574946,-38.892341],[-61.574317,-38.892801],[-61.573945,-38.89294],[-61.573549,-38.892999],[-61.572948,-38.893216],[-61.572046,-38.893274],[-61.571409,-38.893148],[-61.570599,-38.893173],[-61.570179,-38.893426],[-61.569805,-38.893827],[-61.569695,-38.89464],[-61.568939,-38.895668],[-61.567638,-38.896099],[-61.567062,-38.896272],[-61.566827,-38.896315],[-61.566366,-38.896309],[-61.5652,-38.896389],[-61.564402,-38.89625],[-61.563601,-38.896396],[-61.562842,-38.89681],[-61.561629,-38.897335],[-61.561076,-38.897636],[-61.560541,-38.897861],[-61.560225,-38.898253],[-61.559869,-38.898564],[-61.559379,-38.89876],[-61.558944,-38.89889],[-61.557567,-38.899324],[-61.556885,-38.899714],[-61.556255,-38.899931],[-61.555884,-38.899968],[-61.555506,-38.900302],[-61.555082,-38.900507],[-61.554848,-38.900662],[-61.554632,-38.900865],[-61.554522,-38.901131],[-61.554495,-38.901432],[-61.55448,-38.90165],[-61.554209,-38.901881],[-61.553804,-38.902137],[-61.552949,-38.90213],[-61.551752,-38.902884],[-61.551112,-38.90337],[-61.550514,-38.903936],[-61.550049,-38.904685],[-61.549595,-38.905174],[-61.549297,-38.905782],[-61.549328,-38.906318],[-61.549138,-38.906708],[-61.548647,-38.907149],[-61.548251,-38.907822],[-61.548117,-38.908385],[-61.548393,-38.908747],[-61.547876,-38.909903],[-61.547001,-38.910693],[-61.546773,-38.911183],[-61.546223,-38.911141],[-61.545521,-38.911382],[-61.544554,-38.911696],[-61.54381,-38.911898],[-61.543446,-38.912042],[-61.543073,-38.911947],[-61.542158,-38.911576],[-61.540755,-38.911263],[-61.53957,-38.911296],[-61.539077,-38.911579],[-61.538427,-38.911532],[-61.537985,-38.911731],[-61.537404,-38.911898],[-61.536899,-38.912098],[-61.536609,-38.91256],[-61.535925,-38.912952],[-61.535145,-38.913386],[-61.534589,-38.913601],[-61.533183,-38.91329],[-61.532729,-38.91312],[-61.532295,-38.912858],[-61.531874,-38.913059],[-61.531448,-38.913356],[-61.531048,-38.913747],[-61.530411,-38.913817],[-61.529622,-38.91465],[-61.529203,-38.915333],[-61.528879,-38.915702],[-61.528464,-38.915921],[-61.527999,-38.916021],[-61.527733,-38.916333],[-61.526884,-38.916803],[-61.526008,-38.917157],[-61.525396,-38.917216],[-61.525241,-38.917478],[-61.525037,-38.917715],[-61.524546,-38.917807],[-61.524139,-38.917981],[-61.523744,-38.918339],[-61.523076,-38.918272],[-61.522743,-38.918526],[-61.52227,-38.918918],[-61.521915,-38.919212],[-61.521431,-38.91927],[-61.520875,-38.919144],[-61.520525,-38.918871],[-61.520014,-38.918691],[-61.519534,-38.918748],[-61.51918,-38.91887],[-61.518594,-38.918798],[-61.517913,-38.918566],[-61.517713,-38.918496],[-61.517435,-38.918459],[-61.517078,-38.918013],[-61.51683,-38.918031],[-61.516628,-38.917913],[-61.516304,-38.918008],[-61.51611,-38.918153],[-61.515806,-38.918045],[-61.515552,-38.918148],[-61.515572,-38.918446],[-61.51575,-38.918672],[-61.515496,-38.918758],[-61.515113,-38.91889],[-61.514835,-38.918849],[-61.514675,-38.919029],[-61.514327,-38.919368],[-61.514079,-38.919401],[-61.513733,-38.919432],[-61.51345,-38.919577],[-61.513422,-38.919748],[-61.513479,-38.919895],[-61.513268,-38.919995],[-61.513266,-38.920145],[-61.513167,-38.920286],[-61.512806,-38.920244],[-61.512673,-38.92034],[-61.512631,-38.920503],[-61.512554,-38.920651],[-61.512329,-38.920633],[-61.511908,-38.920814],[-61.511527,-38.920854],[-61.511353,-38.920973],[-61.511276,-38.921095],[-61.511136,-38.921074],[-61.510957,-38.921087],[-61.510854,-38.921171],[-61.510756,-38.921288],[-61.510588,-38.92131],[-61.510406,-38.921287],[-61.51028,-38.921465],[-61.510101,-38.921608],[-61.509774,-38.921525],[-61.509529,-38.921611],[-61.509438,-38.921759],[-61.509387,-38.921949],[-61.509094,-38.921931],[-61.508816,-38.92199],[-61.508553,-38.922074],[-61.508144,-38.922076],[-61.50794,-38.922268],[-61.507803,-38.922482],[-61.507512,-38.922533],[-61.507422,-38.922686],[-61.507412,-38.922796],[-61.507372,-38.922988],[-61.507204,-38.923168],[-61.506941,-38.923311],[-61.506702,-38.923324],[-61.506547,-38.923398],[-61.506467,-38.923594],[-61.506552,-38.923971],[-61.506308,-38.924115],[-61.506283,-38.924321],[-61.505592,-38.924507],[-61.505403,-38.924682],[-61.505156,-38.924729],[-61.504859,-38.924889],[-61.504674,-38.924908],[-61.504496,-38.924995],[-61.504302,-38.925082],[-61.504006,-38.925148],[-61.50339,-38.92545],[-61.503028,-38.925844],[-61.502816,-38.926097],[-61.502718,-38.926326],[-61.502297,-38.926557],[-61.5019,-38.927047],[-61.50179,-38.927557],[-61.501318,-38.928187],[-61.501066,-38.928515],[-61.500559,-38.928783],[-61.500216,-38.928934],[-61.500024,-38.928905],[-61.499794,-38.92896],[-61.499597,-38.929097],[-61.499306,-38.929144],[-61.499055,-38.929241],[-61.498885,-38.929381],[-61.498692,-38.92964],[-61.498515,-38.929913],[-61.498432,-38.930032],[-61.498244,-38.930037],[-61.498006,-38.930144],[-61.49795,-38.930351],[-61.497894,-38.930466],[-61.497692,-38.930495],[-61.497471,-38.930476],[-61.497277,-38.93054],[-61.497015,-38.930612],[-61.496825,-38.93074],[-61.496738,-38.930921],[-61.496739,-38.931129],[-61.496801,-38.931262],[-61.496645,-38.931342],[-61.496566,-38.931557],[-61.496365,-38.931732],[-61.496141,-38.931729],[-61.49589,-38.931681],[-61.495797,-38.931764],[-61.49576,-38.931921],[-61.49553,-38.932062],[-61.495279,-38.932232],[-61.494975,-38.932507],[-61.494601,-38.932698],[-61.494512,-38.932909],[-61.49436,-38.933192],[-61.49438,-38.933418],[-61.494168,-38.933705],[-61.493922,-38.933988],[-61.493636,-38.934179],[-61.49356,-38.934313],[-61.493709,-38.934474],[-61.493777,-38.934793],[-61.493617,-38.935085],[-61.493097,-38.935383],[-61.492354,-38.935775],[-61.491537,-38.93625],[-61.491558,-38.93681],[-61.490549,-38.937078],[-61.490099,-38.937492],[-61.489491,-38.937664],[-61.489648,-38.938051],[-61.489403,-38.938263],[-61.488709,-38.938453],[-61.488184,-38.938508],[-61.487788,-38.938561],[-61.487575,-38.938611],[-61.487484,-38.938684],[-61.487159,-38.938781],[-61.486536,-38.938956],[-61.48626,-38.938912],[-61.486046,-38.938939],[-61.485865,-38.939013],[-61.485653,-38.939135],[-61.485046,-38.939262],[-61.484804,-38.939409],[-61.484425,-38.939461],[-61.48434,-38.939588],[-61.484362,-38.939759],[-61.484206,-38.939913],[-61.483821,-38.94003],[-61.483457,-38.940149],[-61.483164,-38.940249],[-61.482864,-38.940256],[-61.481842,-38.940727],[-61.481228,-38.940759],[-61.480837,-38.940798],[-61.480641,-38.940992],[-61.480262,-38.941106],[-61.479957,-38.941116],[-61.479687,-38.940972],[-61.479447,-38.941014],[-61.479316,-38.941159],[-61.478875,-38.941263],[-61.478631,-38.941391],[-61.478382,-38.941772],[-61.478124,-38.941907],[-61.477853,-38.941764],[-61.477545,-38.941809],[-61.477277,-38.941962],[-61.47702,-38.942074],[-61.476707,-38.942556],[-61.476033,-38.943217],[-61.476051,-38.943853],[-61.476145,-38.944325],[-61.475746,-38.944879],[-61.475025,-38.945152],[-61.474293,-38.945617],[-61.473606,-38.945599],[-61.472967,-38.945519],[-61.472406,-38.945455],[-61.471743,-38.945312],[-61.471351,-38.945073],[-61.470732,-38.945052],[-61.470045,-38.944835],[-61.46935,-38.94467],[-61.468958,-38.944768],[-61.468741,-38.945068],[-61.468017,-38.945091],[-61.467215,-38.944734],[-61.466577,-38.944878],[-61.466374,-38.944612],[-61.466363,-38.94414],[-61.466178,-38.943616],[-61.465949,-38.943129],[-61.465802,-38.942827],[-61.465409,-38.942537],[-61.464984,-38.942329],[-61.464357,-38.942189],[-61.463761,-38.942287],[-61.462966,-38.94227],[-61.462163,-38.941896],[-61.461301,-38.941739],[-61.461101,-38.941392],[-61.460917,-38.940845],[-61.460494,-38.940625],[-61.460029,-38.940872],[-61.459548,-38.940939],[-61.458969,-38.941297],[-61.458322,-38.941613],[-61.457804,-38.941716],[-61.457405,-38.941592],[-61.456898,-38.941312],[-61.456372,-38.941334],[-61.456046,-38.940992],[-61.455902,-38.940723],[-61.45555,-38.940408],[-61.455915,-38.939259],[-61.447691,-38.937607],[-61.447926,-38.936897],[-61.444039,-38.93704],[-61.442138,-38.942251],[-61.442973,-38.94244],[-61.442042,-38.945049],[-61.457467,-38.960734],[-61.457688,-38.960529],[-61.457898,-38.960743],[-61.457645,-38.960976],[-61.448374,-38.962021],[-61.459683,-38.97431],[-61.459403,-38.97446],[-61.460756,-38.976194],[-61.460953,-38.976339],[-61.46108,-38.976563],[-61.461272,-38.976841],[-61.461548,-38.977018],[-61.46189,-38.977226],[-61.461968,-38.977382],[-61.462113,-38.977583],[-61.462293,-38.977788],[-61.462467,-38.977967],[-61.462574,-38.978044],[-61.462655,-38.978144],[-61.462732,-38.978264],[-61.462761,-38.978431],[-61.462769,-38.978568],[-61.462736,-38.978758],[-61.462806,-38.978938],[-61.462865,-38.979046],[-61.463017,-38.979153],[-61.46323,-38.979195],[-61.463448,-38.979278],[-61.463579,-38.979396],[-61.463815,-38.979528],[-61.463919,-38.979623],[-61.464015,-38.979796],[-61.464179,-38.979969],[-61.464372,-38.980138],[-61.464576,-38.980339],[-61.464584,-38.980353],[-61.464643,-38.980452],[-61.464715,-38.980585],[-61.465035,-38.980796],[-61.465251,-38.981019],[-61.465416,-38.981246],[-61.465552,-38.981461],[-61.465812,-38.981671],[-61.466009,-38.981834],[-61.466246,-38.982153],[-61.466565,-38.982474],[-61.466599,-38.982725],[-61.466808,-38.982902],[-61.466896,-38.983074],[-61.46697,-38.983338],[-61.467145,-38.983548],[-61.467345,-38.983699],[-61.467659,-38.983856],[-61.467934,-38.98402],[-61.46818,-38.984252],[-61.468316,-38.984461],[-61.468489,-38.984689],[-61.468656,-38.984894],[-61.468747,-38.984987],[-61.468818,-38.985115],[-61.468911,-38.98519],[-61.469098,-38.985317],[-61.469297,-38.985535],[-61.469391,-38.985678],[-61.469498,-38.985772],[-61.469614,-38.985875],[-61.469654,-38.986005],[-61.469734,-38.986163],[-61.469812,-38.986309],[-61.469933,-38.986466],[-61.47009,-38.986594],[-61.470131,-38.986721],[-61.470157,-38.986838],[-61.470263,-38.986938],[-61.470412,-38.987008],[-61.470629,-38.987094],[-61.470853,-38.98726],[-61.470938,-38.987323],[-61.467049,-38.994816],[-61.46698,-38.995195],[-61.476095,-38.996631],[-61.483269,-38.997284],[-61.486917,-38.997956],[-61.490485,-38.998291],[-61.494349,-38.998878],[-61.499494,-38.999491],[-61.502293,-38.999739],[-61.505679,-39.000012],[-61.51056,-39.000597],[-61.514459,-39.001073],[-61.517598,-39.001401],[-61.519751,-39.001652],[-61.522513,-39.00209],[-61.524112,-39.002212],[-61.526905,-39.002404],[-61.529087,-39.002616],[-61.529608,-39.002449],[-61.530121,-39.002568],[-61.531344,-39.002829],[-61.533262,-39.003131],[-61.534771,-39.003295],[-61.536656,-39.003453],[-61.538615,-39.003545],[-61.540173,-39.003628],[-61.542071,-39.003725],[-61.543883,-39.003931],[-61.545425,-39.004098],[-61.547411,-39.004264],[-61.548882,-39.004559],[-61.551605,-39.004738],[-61.55444,-39.004934],[-61.556934,-39.004922],[-61.559605,-39.004848],[-61.561643,-39.004917],[-61.565429,-39.004547],[-61.568206,-39.004556],[-61.57202,-39.004294],[-61.574961,-39.004202],[-61.576167,-39.004235],[-61.57924,-39.00428],[-61.582987,-39.00399],[-61.585322,-39.004301],[-61.589179,-39.004109],[-61.594328,-39.004314],[-61.596623,-39.004362],[-61.606256,-39.004034],[-61.610121,-39.003826],[-61.617575,-39.002991],[-61.617834,-39.002994],[-61.618903,-39.002939],[-61.621214,-39.002661],[-61.621969,-39.00257],[-61.623272,-39.00236],[-61.624113,-39.002145],[-61.624547,-39.002082],[-61.626197,-39.001809],[-61.626487,-39.001745],[-61.62688,-39.001592],[-61.629063,-39.00137],[-61.630395,-39.001138],[-61.630946,-39.000987],[-61.631354,-39.000789],[-61.633277,-38.999821],[-61.634784,-38.999523],[-61.635683,-38.999286],[-61.640799,-38.997342],[-61.642392,-38.997],[-61.643345,-38.996966],[-61.6443,-38.996842],[-61.645169,-38.996649],[-61.645867,-38.99641],[-61.646396,-38.996164],[-61.646799,-38.995977],[-61.64738,-38.995707],[-61.647671,-38.99562],[-61.647988,-38.995601],[-61.648394,-38.995516],[-61.648743,-38.995362],[-61.64973,-38.995081],[-61.651446,-38.994335],[-61.652208,-38.993713],[-61.652529,-38.993537],[-61.652703,-38.993516],[-61.653839,-38.992922],[-61.654157,-38.992903],[-61.654621,-38.992796],[-61.655782,-38.992404],[-61.656187,-38.992341],[-61.658015,-38.991844],[-61.660245,-38.991419],[-61.664913,-38.990189],[-61.667382,-38.989317],[-61.667965,-38.98903],[-61.66884,-38.988523],[-61.669337,-38.988145],[-61.669485,-38.987967],[-61.669663,-38.987676],[-61.669754,-38.987452],[-61.669786,-38.987272],[-61.669864,-38.986192],[-61.670447,-38.985518],[-61.672172,-38.984665],[-61.672932,-38.984156],[-61.674418,-38.983362],[-61.675819,-38.982522],[-61.677251,-38.981548],[-61.680309,-38.979983],[-61.682358,-38.978363],[-61.68496,-38.976523],[-61.686808,-38.974878],[-61.687161,-38.974499],[-61.687395,-38.974299],[-61.68807,-38.973676],[-61.688311,-38.973138],[-61.688518,-38.97287],[-61.688841,-38.972536],[-61.690688,-38.97098],[-61.691535,-38.970382],[-61.694296,-38.967633],[-61.696927,-38.966724],[-61.697629,-38.966451],[-61.698549,-38.966131],[-61.698982,-38.965997],[-61.699383,-38.965915],[-61.700086,-38.965825],[-61.700814,-38.965714],[-61.704798,-38.965347],[-61.706472,-38.965305],[-61.711667,-38.965056],[-61.712029,-38.965039],[-61.719119,-38.965352],[-61.723637,-38.966153],[-61.723751,-38.96618],[-61.725533,-38.96659],[-61.726443,-38.966852],[-61.728191,-38.967118],[-61.728332,-38.967161],[-61.732101,-38.968308],[-61.732617,-38.968494],[-61.734086,-38.9686],[-61.737619,-38.969404],[-61.737877,-38.969496],[-61.74107,-38.970049],[-61.743197,-38.970455],[-61.743855,-38.970754],[-61.748334,-38.971973],[-61.750652,-38.972569],[-61.751013,-38.972699],[-61.751817,-38.97296],[-61.752218,-38.973122],[-61.754225,-38.973773],[-61.754667,-38.973904],[-61.755028,-38.974066],[-61.755469,-38.974228],[-61.755829,-38.974453],[-61.75663,-38.974839],[-61.757032,-38.97497],[-61.757434,-38.975037],[-61.757797,-38.975104],[-61.758199,-38.975171],[-61.758641,-38.975302],[-61.759043,-38.975433],[-61.759485,-38.975532],[-61.759887,-38.975662],[-61.760249,-38.975761],[-61.76061,-38.975891],[-61.761011,-38.976053],[-61.761251,-38.976181],[-61.76205,-38.976694],[-61.76233,-38.976855],[-61.762772,-38.976985],[-61.763174,-38.977116],[-61.763576,-38.977215],[-61.763977,-38.977345],[-61.764339,-38.977475],[-61.764779,-38.977669],[-61.765577,-38.978245],[-61.765977,-38.978501],[-61.766336,-38.978726],[-61.767137,-38.979112],[-61.767537,-38.979337],[-61.767897,-38.979562],[-61.768258,-38.979723],[-61.768659,-38.979885],[-61.76898,-38.979983],[-61.769782,-38.980307],[-61.770183,-38.9805],[-61.770583,-38.980725],[-61.770982,-38.980981],[-61.771342,-38.981237],[-61.771741,-38.981462],[-61.772142,-38.981656],[-61.772502,-38.981849],[-61.772902,-38.982074],[-61.773262,-38.982298],[-61.774457,-38.983256],[-61.774856,-38.983544],[-61.775215,-38.9838],[-61.775242,-38.983823],[-61.775415,-38.983928],[-61.775855,-38.984154],[-61.776254,-38.984442],[-61.776653,-38.984761],[-61.777011,-38.98508],[-61.77745,-38.985368],[-61.777809,-38.985656],[-61.778249,-38.985913],[-61.778648,-38.986169],[-61.779047,-38.986457],[-61.779406,-38.986713],[-61.779767,-38.986906],[-61.780128,-38.987036],[-61.780571,-38.987135],[-61.780972,-38.987265],[-61.781415,-38.987365],[-61.781857,-38.987495],[-61.782218,-38.987625],[-61.78266,-38.987756],[-61.783463,-38.988079],[-61.783863,-38.988273],[-61.784265,-38.988435],[-61.785066,-38.988821],[-61.785868,-38.989145],[-61.78627,-38.989275],[-61.786712,-38.989406],[-61.787073,-38.989536],[-61.787877,-38.989796],[-61.788681,-38.989994],[-61.789084,-38.990061],[-61.789568,-38.990129],[-61.78993,-38.990227],[-61.790331,-38.990358],[-61.790815,-38.990457],[-61.791216,-38.990619],[-61.791577,-38.990749],[-61.791937,-38.990942],[-61.792338,-38.991167],[-61.792698,-38.991359],[-61.792939,-38.991457],[-61.793381,-38.991556],[-61.793622,-38.991621],[-61.793986,-38.991625],[-61.79439,-38.991598],[-61.794754,-38.991601],[-61.795157,-38.991637],[-61.795559,-38.991767],[-61.795921,-38.991866],[-61.796324,-38.991933],[-61.796848,-38.99197],[-61.797251,-38.992037],[-61.797655,-38.992073],[-61.798057,-38.99214],[-61.798461,-38.992176],[-61.799266,-38.99231],[-61.799629,-38.992377],[-61.799991,-38.992475],[-61.800394,-38.992542],[-61.800756,-38.992641],[-61.801158,-38.992708],[-61.801521,-38.992743],[-61.801925,-38.992747],[-61.80233,-38.99272],[-61.802734,-38.992724],[-61.803139,-38.992665],[-61.803584,-38.992575],[-61.803745,-38.992577],[-61.804029,-38.99258],[-61.804434,-38.992521],[-61.804798,-38.992461],[-61.805204,-38.992371],[-61.805651,-38.992218],[-61.806866,-38.992041],[-61.807272,-38.991919],[-61.807718,-38.991798],[-61.808125,-38.991644],[-61.80853,-38.991554],[-61.808936,-38.991432],[-61.809302,-38.991278],[-61.809709,-38.991124],[-61.810115,-38.991003],[-61.810561,-38.990881],[-61.810968,-38.990727],[-61.811782,-38.990357],[-61.812188,-38.990204],[-61.812595,-38.990019],[-61.813002,-38.989865],[-61.813368,-38.98968],[-61.813776,-38.989463],[-61.814102,-38.989309],[-61.814386,-38.989217],[-61.814832,-38.989128],[-61.815198,-38.989005],[-61.815441,-38.988944],[-61.815684,-38.988915],[-61.816047,-38.988919],[-61.816451,-38.988955],[-61.816733,-38.988958],[-61.817139,-38.988836],[-61.817547,-38.988619],[-61.817955,-38.988371],[-61.818323,-38.988123],[-61.81869,-38.987906],[-61.819423,-38.987535],[-61.81983,-38.98735],[-61.820238,-38.987133],[-61.821052,-38.986763],[-61.821459,-38.986546],[-61.822275,-38.98605],[-61.822643,-38.985802],[-61.82301,-38.985585],[-61.823459,-38.985337],[-61.823867,-38.985089],[-61.824235,-38.984809],[-61.824603,-38.984497],[-61.825015,-38.984029],[-61.825099,-38.983872],[-61.825185,-38.983558],[-61.82523,-38.983243],[-61.825235,-38.982928],[-61.825321,-38.982613],[-61.825327,-38.982298],[-61.825372,-38.981983],[-61.825458,-38.9817],[-61.825753,-38.980947],[-61.82584,-38.980538],[-61.825725,-38.980158],[-61.825649,-38.979874],[-61.825655,-38.979527],[-61.825742,-38.979181],[-61.825908,-38.978899],[-61.826237,-38.978556],[-61.826813,-38.977868],[-61.82702,-38.977586],[-61.827307,-38.977337],[-61.827593,-38.977119],[-61.828041,-38.976903],[-61.82853,-38.976655],[-61.828937,-38.976439],[-61.829384,-38.976254],[-61.829872,-38.97607],[-61.832308,-38.975306],[-61.832836,-38.975122],[-61.833322,-38.975033],[-61.833768,-38.974911],[-61.834255,-38.97479],[-61.834741,-38.9747],[-61.834985,-38.974608],[-61.835433,-38.97436],[-61.836328,-38.973959],[-61.836856,-38.973775],[-61.83783,-38.973533],[-61.838317,-38.97338],[-61.838803,-38.973259],[-61.839289,-38.973169],[-61.839815,-38.973111],[-61.840301,-38.973085],[-61.84127,-38.973094],[-61.841755,-38.973067],[-61.842199,-38.97304],[-61.842646,-38.972919],[-61.843093,-38.972734],[-61.843582,-38.972487],[-61.843989,-38.97227],[-61.844477,-38.972086],[-61.84476,-38.972057],[-61.845245,-38.97203],[-61.845731,-38.97194],[-61.846258,-38.97182],[-61.846744,-38.97173],[-61.847028,-38.971669],[-61.847513,-38.971643],[-61.848484,-38.971526],[-61.84897,-38.971436],[-61.849455,-38.971378],[-61.849942,-38.971288],[-61.850265,-38.97126],[-61.850748,-38.971391],[-61.85107,-38.971426],[-61.851476,-38.971304],[-61.852004,-38.971088],[-61.852491,-38.970998],[-61.852774,-38.970938],[-61.853744,-38.970884],[-61.854229,-38.970889],[-61.854714,-38.970831],[-61.855687,-38.970651],[-61.856214,-38.970499],[-61.856701,-38.970346],[-61.857189,-38.970162],[-61.85788,-38.969885],[-61.858285,-38.969763],[-61.858529,-38.969702],[-61.858771,-38.969673],[-61.859742,-38.969619],[-61.860266,-38.969624],[-61.86075,-38.969692],[-61.861234,-38.969728],[-61.861718,-38.969796],[-61.862162,-38.9698],[-61.862647,-38.969742],[-61.863617,-38.969688],[-61.864103,-38.969599],[-61.864589,-38.96954],[-61.865559,-38.969487],[-61.866528,-38.969496],[-61.867013,-38.969469],[-61.867499,-38.969411],[-61.867984,-38.969384],[-61.870411,-38.969092],[-61.870897,-38.969003],[-61.871424,-38.968913],[-61.871909,-38.968886],[-61.87288,-38.96877],[-61.87385,-38.968716],[-61.874336,-38.968657],[-61.874862,-38.9686],[-61.875832,-38.968546],[-61.876316,-38.96855],[-61.876773,-38.9685],[-61.876842,-38.968492],[-61.877326,-38.968529],[-61.879749,-38.968552],[-61.880233,-38.968588],[-61.881,-38.968595],[-61.881363,-38.968631],[-61.882813,-38.968834],[-61.883296,-38.968933],[-61.88378,-38.969],[-61.884264,-38.969037],[-61.884749,-38.969041],[-61.887174,-38.968907],[-61.887658,-38.968911],[-61.889113,-38.968831],[-61.889598,-38.968835],[-61.890002,-38.968808],[-61.89097,-38.96888],[-61.891334,-38.968883],[-61.891817,-38.968951],[-61.8923,-38.96905],[-61.892785,-38.969055],[-61.893148,-38.96909],[-61.894119,-38.968973],[-61.895092,-38.96873],[-61.895578,-38.96864],[-61.895821,-38.968611],[-61.896306,-38.968584],[-61.89663,-38.968524],[-61.896995,-38.968401],[-61.897971,-38.967969],[-61.899839,-38.967261],[-61.900287,-38.967013],[-61.90039,-38.966968],[-61.901263,-38.966581],[-61.90167,-38.966427],[-61.902643,-38.966121],[-61.90309,-38.965968],[-61.903577,-38.965846],[-61.905033,-38.965671],[-61.906488,-38.96559],[-61.90746,-38.96541],[-61.908433,-38.965167],[-61.908879,-38.965045],[-61.909365,-38.964955],[-61.909852,-38.964802],[-61.910338,-38.96468],[-61.910785,-38.964527],[-61.911314,-38.964279],[-61.911802,-38.964],[-61.912292,-38.96369],[-61.912741,-38.963378],[-61.913148,-38.96313],[-61.913596,-38.962914],[-61.914083,-38.962729],[-61.914611,-38.962576],[-61.915583,-38.962333],[-61.915988,-38.962274],[-61.916393,-38.962183],[-61.916758,-38.962123],[-61.917566,-38.962068],[-61.918375,-38.961949],[-61.918781,-38.961827],[-61.919227,-38.961705],[-61.919633,-38.961551],[-61.919998,-38.961428],[-61.920363,-38.961337],[-61.920768,-38.961278],[-61.921173,-38.961187],[-61.921983,-38.961068],[-61.922387,-38.96104],[-61.922792,-38.96095],[-61.923197,-38.96089],[-61.923602,-38.9608],[-61.923967,-38.960677],[-61.924373,-38.960554],[-61.924779,-38.9604],[-61.925144,-38.960278],[-61.92559,-38.960187],[-61.925995,-38.960065],[-61.926361,-38.959942],[-61.926766,-38.95982],[-61.927172,-38.959666],[-61.927579,-38.959481],[-61.9288,-38.95883],[-61.929167,-38.958612],[-61.929574,-38.958395],[-61.929941,-38.958178],[-61.930348,-38.957961],[-61.930755,-38.957713],[-61.931122,-38.957464],[-61.931571,-38.957184],[-61.931938,-38.956904],[-61.932672,-38.956406],[-61.932998,-38.95622],[-61.93381,-38.955912],[-61.934623,-38.955541],[-61.934827,-38.955417],[-61.935273,-38.955295],[-61.935639,-38.955141],[-61.93645,-38.954896],[-61.936856,-38.954742],[-61.937669,-38.954371],[-61.938075,-38.954217],[-61.938482,-38.954032],[-61.938888,-38.953878],[-61.939253,-38.953786],[-61.939658,-38.953696],[-61.940023,-38.953573],[-61.940468,-38.953482],[-61.940834,-38.953359],[-61.941199,-38.953205],[-61.941605,-38.953083],[-61.94197,-38.95296],[-61.94278,-38.952778],[-61.94351,-38.952595],[-61.943874,-38.952536],[-61.945493,-38.952298],[-61.945897,-38.95227],[-61.946301,-38.952211],[-61.946705,-38.952183],[-61.947111,-38.952092],[-61.948205,-38.951818],[-61.94861,-38.951696],[-61.948976,-38.951573],[-61.949381,-38.951482],[-61.950111,-38.951236],[-61.950517,-38.951114],[-61.952947,-38.950568],[-61.953352,-38.950446],[-61.953758,-38.950355],[-61.954123,-38.950232],[-61.954933,-38.95005],[-61.955338,-38.949928],[-61.955622,-38.949836],[-61.955987,-38.949776],[-61.956391,-38.949716],[-61.957201,-38.949535],[-61.957566,-38.949443],[-61.957972,-38.949289],[-61.958379,-38.949072],[-61.958785,-38.948887],[-61.959151,-38.948701],[-61.959395,-38.948608],[-61.9598,-38.948517],[-61.960165,-38.948426],[-61.96061,-38.948335],[-61.960974,-38.948307],[-61.961379,-38.948248],[-61.962187,-38.948192],[-61.962591,-38.948132],[-61.963402,-38.94795],[-61.963766,-38.947859],[-61.96413,-38.947799],[-61.964494,-38.947771],[-61.964777,-38.947773],[-61.96518,-38.947808],[-61.966392,-38.947725],[-61.966716,-38.947664],[-61.967122,-38.94751],[-61.967528,-38.947388],[-61.967852,-38.947265],[-61.968258,-38.947174],[-61.968623,-38.947051],[-61.969028,-38.946928],[-61.969393,-38.946837],[-61.969757,-38.946777],[-61.970161,-38.946749],[-61.970566,-38.94669],[-61.97097,-38.946662],[-61.971737,-38.946668],[-61.972543,-38.946739],[-61.972946,-38.946805],[-61.973349,-38.94684],[-61.973753,-38.946844],[-61.974157,-38.946784],[-61.974522,-38.946693],[-61.974887,-38.94657],[-61.975251,-38.94651],[-61.975656,-38.946451],[-61.97602,-38.946422],[-61.976706,-38.946428],[-61.977028,-38.946494],[-61.977269,-38.946559],[-61.977671,-38.946721],[-61.978073,-38.946819],[-61.978476,-38.946885],[-61.978839,-38.94692],[-61.979647,-38.946864],[-61.980051,-38.946805],[-61.980497,-38.946714],[-61.980679,-38.9467],[-61.980861,-38.946685],[-61.981265,-38.946626],[-61.98163,-38.946535],[-61.982034,-38.946475],[-61.982399,-38.946384],[-61.982763,-38.946324],[-61.983168,-38.946264],[-61.983532,-38.946204],[-61.983815,-38.946175],[-61.984219,-38.946179],[-61.984623,-38.946151],[-61.986278,-38.946165],[-61.98668,-38.946263],[-61.987043,-38.946298],[-61.98785,-38.946305],[-61.988254,-38.946277],[-61.988618,-38.946248],[-61.989345,-38.946255],[-61.989748,-38.946321],[-61.990151,-38.946356],[-61.990433,-38.94639],[-61.990674,-38.946456],[-61.990997,-38.946458],[-61.99128,-38.946429],[-61.991685,-38.946338],[-61.99205,-38.946247],[-61.992862,-38.945938],[-61.993227,-38.945784],[-61.994038,-38.945539],[-61.994362,-38.945447],[-61.994726,-38.945387],[-61.99505,-38.945358],[-61.995453,-38.945362],[-61.995858,-38.945334],[-61.996243,-38.945165],[-61.99684,-38.944658],[-61.997928,-38.944401],[-61.998209,-38.94417],[-61.999354,-38.943832],[-61.999807,-38.943842],[-62.001246,-38.9435],[-62.00206,-38.943468],[-62.003839,-38.943119],[-62.004981,-38.942998],[-62.005797,-38.942811],[-62.00663,-38.942598],[-62.00748,-38.942308],[-62.008456,-38.941953],[-62.00959,-38.941587],[-62.010556,-38.94135],[-62.011321,-38.941226],[-62.012052,-38.941194],[-62.012651,-38.941121],[-62.013401,-38.940869],[-62.01427,-38.94041],[-62.014704,-38.940258],[-62.015579,-38.939993],[-62.016798,-38.939686],[-62.017256,-38.939587],[-62.019115,-38.938741],[-62.020101,-38.938283],[-62.020919,-38.93794],[-62.022025,-38.937743],[-62.022842,-38.937516],[-62.023725,-38.937252],[-62.024459,-38.936973],[-62.025678,-38.936426],[-62.025993,-38.936442],[-62.027158,-38.93618],[-62.028117,-38.935838],[-62.029135,-38.935458],[-62.030218,-38.935143],[-62.031383,-38.934907],[-62.032,-38.934731],[-62.032851,-38.934388],[-62.033751,-38.934098],[-62.03465,-38.933898],[-62.035617,-38.933543],[-62.036639,-38.933153],[-62.03696,-38.933084],[-62.037365,-38.932992],[-62.03773,-38.932869],[-62.038136,-38.932747],[-62.038501,-38.932623],[-62.038906,-38.932501],[-62.039352,-38.932347],[-62.039757,-38.932255],[-62.039972,-38.932183],[-62.040122,-38.932132],[-62.040527,-38.93201],[-62.040892,-38.931886],[-62.04115,-38.931729],[-62.041299,-38.931638],[-62.041664,-38.931514],[-62.042474,-38.931269],[-62.042839,-38.931146],[-62.04311,-38.931085],[-62.043244,-38.931055],[-62.043609,-38.930963],[-62.044826,-38.9305],[-62.045192,-38.930314],[-62.045598,-38.930096],[-62.045965,-38.929847],[-62.04625,-38.92966],[-62.046534,-38.929505],[-62.046898,-38.929477],[-62.047302,-38.929448],[-62.048112,-38.929266],[-62.048437,-38.929111],[-62.04917,-38.928612],[-62.049983,-38.928178],[-62.050349,-38.927928],[-62.050634,-38.927773],[-62.051364,-38.927495],[-62.051769,-38.927372],[-62.052216,-38.927187],[-62.053029,-38.926752],[-62.053476,-38.926504],[-62.053924,-38.926223],[-62.054699,-38.925631],[-62.055024,-38.925413],[-62.05539,-38.925195],[-62.055797,-38.924978],[-62.056163,-38.924728],[-62.05653,-38.924511],[-62.056895,-38.924324],[-62.057708,-38.92389],[-62.058116,-38.923609],[-62.05822,-38.923529],[-62.058849,-38.923079],[-62.059215,-38.922861],[-62.059622,-38.922644],[-62.060029,-38.922364],[-62.060233,-38.922207],[-62.060519,-38.921926],[-62.060805,-38.921613],[-62.061051,-38.921394],[-62.061338,-38.92105],[-62.061705,-38.920738],[-62.062152,-38.920489],[-62.062479,-38.920208],[-62.062846,-38.919864],[-62.063213,-38.919583],[-62.063661,-38.919303],[-62.063987,-38.919053],[-62.064394,-38.918773],[-62.065169,-38.91818],[-62.065576,-38.917931],[-62.065861,-38.917744],[-62.066228,-38.917432],[-62.066882,-38.916807],[-62.067208,-38.916526],[-62.067494,-38.916244],[-62.06774,-38.915994],[-62.067986,-38.915681],[-62.068273,-38.915336],[-62.068681,-38.915024],[-62.069169,-38.914713],[-62.069455,-38.914431],[-62.069661,-38.914149],[-62.069826,-38.913867],[-62.069991,-38.913553],[-62.070036,-38.913238],[-62.069959,-38.912922],[-62.069842,-38.912637],[-62.069563,-38.912383],[-62.069202,-38.912191],[-62.068597,-38.911932],[-62.0684,-38.911838],[-62.067958,-38.911676],[-62.067111,-38.911607],[-62.066304,-38.9116],[-62.06586,-38.911628],[-62.065455,-38.911751],[-62.064646,-38.911934],[-62.064281,-38.912057],[-62.063916,-38.912212],[-62.063509,-38.912429],[-62.062695,-38.91299],[-62.062329,-38.913208],[-62.061517,-38.91358],[-62.061151,-38.913797],[-62.060743,-38.914078],[-62.060295,-38.914389],[-62.06001,-38.914608],[-62.059604,-38.914825],[-62.059238,-38.915011],[-62.05774,-38.915582],[-62.056725,-38.915874],[-62.056401,-38.915966],[-62.056077,-38.915995],[-62.055755,-38.915992],[-62.054946,-38.916112],[-62.054542,-38.91614],[-62.054097,-38.916199],[-62.05329,-38.916256],[-62.052481,-38.916375],[-62.052116,-38.916467],[-62.051713,-38.916495],[-62.051308,-38.916587],[-62.050903,-38.916646],[-62.050418,-38.916737],[-62.050175,-38.91683],[-62.049727,-38.91711],[-62.0494,-38.917391],[-62.049154,-38.917704],[-62.04903,-38.917924],[-62.048941,-38.918553],[-62.048857,-38.918805],[-62.048651,-38.919119],[-62.048366,-38.919305],[-62.04796,-38.919491],[-62.047595,-38.919646],[-62.047189,-38.919769],[-62.046906,-38.919829],[-62.046099,-38.919823],[-62.045696,-38.919788],[-62.045293,-38.919722],[-62.044489,-38.919526],[-62.044128,-38.919365],[-62.043685,-38.919236],[-62.042878,-38.919229],[-62.042475,-38.919194],[-62.042073,-38.919128],[-62.04163,-38.918998],[-62.041228,-38.918932],[-62.040826,-38.918834],[-62.040424,-38.918705],[-62.039622,-38.91832],[-62.039261,-38.918127],[-62.038859,-38.917998],[-62.038418,-38.917837],[-62.037975,-38.917707],[-62.03729,-38.917701],[-62.036886,-38.91773],[-62.036563,-38.917727],[-62.036241,-38.917661],[-62.03584,-38.917437],[-62.035398,-38.917307],[-62.034954,-38.917304],[-62.034633,-38.917206],[-62.034272,-38.917046],[-62.033991,-38.916886],[-62.033633,-38.916536],[-62.032874,-38.915931],[-62.032634,-38.915803],[-62.032233,-38.915642],[-62.031952,-38.915513],[-62.03159,-38.915416],[-62.031228,-38.91535],[-62.030745,-38.915283],[-62.030343,-38.915153],[-62.030062,-38.915025],[-62.029702,-38.91477],[-62.029423,-38.914515],[-62.029146,-38.914134],[-62.028787,-38.913816],[-62.028508,-38.913593],[-62.028067,-38.913369],[-62.027785,-38.913303],[-62.027503,-38.91327],[-62.026696,-38.913263],[-62.026293,-38.913228],[-62.02581,-38.913161],[-62.025487,-38.91319],[-62.025167,-38.912998],[-62.025412,-38.912779],[-62.025778,-38.91253],[-62.026185,-38.912313],[-62.026995,-38.912067],[-62.027401,-38.911913],[-62.027845,-38.911917],[-62.028247,-38.912015],[-62.028609,-38.912112],[-62.029012,-38.912147],[-62.029293,-38.912213],[-62.029654,-38.912373],[-62.030055,-38.912566],[-62.030295,-38.912694],[-62.030695,-38.912981],[-62.031094,-38.913299],[-62.031494,-38.913586],[-62.031894,-38.913842],[-62.032254,-38.914066],[-62.032655,-38.91429],[-62.034258,-38.91506],[-62.03466,-38.915189],[-62.035062,-38.915287],[-62.035504,-38.915417],[-62.035866,-38.915514],[-62.036672,-38.915647],[-62.037115,-38.915714],[-62.037476,-38.915811],[-62.037839,-38.915877],[-62.038242,-38.915912],[-62.038644,-38.915979],[-62.038886,-38.916012],[-62.039691,-38.916208],[-62.039973,-38.916242],[-62.040414,-38.916403],[-62.040816,-38.916564],[-62.041218,-38.916693],[-62.041579,-38.916791],[-62.042022,-38.916889],[-62.042384,-38.916987],[-62.042787,-38.917053],[-62.043593,-38.917123],[-62.04444,-38.91713],[-62.044602,-38.917099],[-62.044884,-38.917102],[-62.045694,-38.916919],[-62.046099,-38.916796],[-62.046505,-38.916642],[-62.046911,-38.916456],[-62.047116,-38.916237],[-62.047321,-38.915955],[-62.047527,-38.915641],[-62.047733,-38.915359],[-62.047899,-38.915014],[-62.047822,-38.914667],[-62.047665,-38.914382],[-62.047346,-38.914095],[-62.046905,-38.913902],[-62.046504,-38.913679],[-62.046064,-38.913423],[-62.045823,-38.913295],[-62.045381,-38.913133],[-62.045039,-38.912684],[-62.045549,-38.912693],[-62.045993,-38.912697],[-62.046355,-38.912763],[-62.046757,-38.912829],[-62.047201,-38.912865],[-62.047604,-38.912931],[-62.047845,-38.912996],[-62.048165,-38.913156],[-62.048494,-38.913331],[-62.048887,-38.913509],[-62.049208,-38.913638],[-62.049531,-38.913672],[-62.049935,-38.913643],[-62.050339,-38.913584],[-62.050742,-38.913587],[-62.051549,-38.913657],[-62.051952,-38.913628],[-62.052357,-38.913569],[-62.052761,-38.913477],[-62.053572,-38.913232],[-62.053937,-38.913077],[-62.053943,-38.913074],[-62.054384,-38.91286],[-62.054707,-38.912831],[-62.055111,-38.912803],[-62.055515,-38.912743],[-62.055798,-38.912682],[-62.056004,-38.912432],[-62.055887,-38.912084],[-62.056053,-38.911738],[-62.05646,-38.911458],[-62.056784,-38.911429],[-62.057226,-38.911527],[-62.057627,-38.911688],[-62.058431,-38.911947],[-62.058793,-38.912044],[-62.059156,-38.912079],[-62.0596,-38.912051],[-62.060006,-38.912012],[-62.060597,-38.911836],[-62.060815,-38.911745],[-62.06126,-38.911623],[-62.061666,-38.911468],[-62.062072,-38.911282],[-62.062477,-38.911128],[-62.062924,-38.910911],[-62.063332,-38.910599],[-62.063826,-38.910475],[-62.064293,-38.910288],[-62.066001,-38.909749],[-62.066619,-38.910019],[-62.067619,-38.91014],[-62.068273,-38.91053],[-62.068746,-38.91076],[-62.069281,-38.910901],[-62.069841,-38.911381],[-62.070171,-38.911651],[-62.070446,-38.911721],[-62.070789,-38.911904],[-62.070957,-38.912164],[-62.071015,-38.91249],[-62.07123,-38.912687],[-62.071901,-38.913114],[-62.072053,-38.913362],[-62.071972,-38.914954],[-62.071911,-38.917804],[-62.07183,-38.919434],[-62.071786,-38.920703],[-62.071714,-38.922072],[-62.071581,-38.923053],[-62.071412,-38.92386],[-62.071244,-38.924741],[-62.073571,-38.925127],[-62.073791,-38.924395],[-62.073934,-38.923802],[-62.074298,-38.922478],[-62.074365,-38.921485],[-62.074281,-38.920775],[-62.074046,-38.919888],[-62.073734,-38.91914],[-62.073706,-38.918714],[-62.073718,-38.918036],[-62.073732,-38.917383],[-62.073758,-38.916654],[-62.073774,-38.916089],[-62.073771,-38.915406],[-62.073783,-38.914728],[-62.073876,-38.914048],[-62.073831,-38.91361],[-62.073841,-38.912831],[-62.073888,-38.912171],[-62.073869,-38.911507],[-62.073809,-38.911131],[-62.073862,-38.910728],[-62.073838,-38.910465],[-62.073928,-38.910238],[-62.073984,-38.909948],[-62.074033,-38.909432],[-62.07399,-38.909022],[-62.073993,-38.908557],[-62.073882,-38.90807],[-62.073813,-38.907355],[-62.073961,-38.906374],[-62.074013,-38.905933],[-62.073939,-38.905608],[-62.073889,-38.904982],[-62.074228,-38.904499],[-62.074634,-38.904069],[-62.074798,-38.903881],[-62.074962,-38.903693],[-62.075327,-38.903507],[-62.075693,-38.90332],[-62.076099,-38.903134],[-62.076505,-38.902948],[-62.076687,-38.902855],[-62.07687,-38.902762],[-62.077073,-38.902653],[-62.077276,-38.902545],[-62.077642,-38.902358],[-62.078007,-38.902172],[-62.07821,-38.902079],[-62.078413,-38.901986],[-62.079023,-38.90166],[-62.079632,-38.901334],[-62.079998,-38.901147],[-62.080221,-38.901039],[-62.080673,-38.90084],[-62.081215,-38.90059],[-62.082027,-38.900218],[-62.082433,-38.9],[-62.082839,-38.899846],[-62.084056,-38.899288],[-62.084462,-38.89907],[-62.085193,-38.898698],[-62.085599,-38.898543],[-62.087224,-38.897673],[-62.087549,-38.897487],[-62.087995,-38.897301],[-62.08828,-38.897082],[-62.08901,-38.896773],[-62.08974,-38.896495],[-62.090145,-38.896372],[-62.090954,-38.896189],[-62.0914,-38.896066],[-62.091845,-38.895912],[-62.092209,-38.895883],[-62.092532,-38.895886],[-62.092975,-38.895953],[-62.093376,-38.896145],[-62.093655,-38.896336],[-62.094055,-38.896654],[-62.094333,-38.896972],[-62.094532,-38.897194],[-62.09477,-38.897543],[-62.095009,-38.897734],[-62.095406,-38.898107],[-62.095892,-38.898119],[-62.096172,-38.898279],[-62.098174,-38.899555],[-62.099587,-38.900472],[-62.099752,-38.900208],[-62.097018,-38.898443],[-62.096538,-38.898124],[-62.096202,-38.897922],[-62.095899,-38.897729],[-62.095943,-38.8973],[-62.095947,-38.896984],[-62.096036,-38.896323],[-62.096158,-38.896261],[-62.09656,-38.896327],[-62.096962,-38.896425],[-62.097244,-38.896458],[-62.097578,-38.89655],[-62.098096,-38.896649],[-62.098255,-38.896309],[-62.098577,-38.896343],[-62.099382,-38.896538],[-62.099744,-38.896635],[-62.100756,-38.896905],[-62.100896,-38.896691],[-62.100998,-38.896361],[-62.101087,-38.896085],[-62.100158,-38.895756],[-62.099676,-38.895595],[-62.099274,-38.895497],[-62.09879,-38.895376],[-62.098903,-38.894924],[-62.099772,-38.895026],[-62.100771,-38.895162],[-62.101093,-38.895196],[-62.101494,-38.895265],[-62.101622,-38.894821],[-62.101733,-38.894535],[-62.101264,-38.894409],[-62.100862,-38.894343],[-62.100499,-38.894277],[-62.100097,-38.894211],[-62.099783,-38.894151],[-62.099249,-38.894123],[-62.099458,-38.89367],[-62.099583,-38.893355],[-62.099748,-38.893073],[-62.099873,-38.892759],[-62.100204,-38.892131],[-62.10041,-38.891754],[-62.100824,-38.891661],[-62.101237,-38.891545],[-62.101346,-38.891131],[-62.101431,-38.890816],[-62.101555,-38.890533],[-62.101681,-38.890187],[-62.101805,-38.889905],[-62.101996,-38.889464],[-62.102214,-38.889466],[-62.102657,-38.889533],[-62.103019,-38.889599],[-62.103422,-38.889633],[-62.103664,-38.889667],[-62.104026,-38.889764],[-62.104429,-38.889799],[-62.105636,-38.889997],[-62.105996,-38.890028],[-62.106483,-38.890127],[-62.106357,-38.890444],[-62.106018,-38.891702],[-62.105976,-38.891891],[-62.105851,-38.892206],[-62.105681,-38.892835],[-62.105556,-38.893149],[-62.105513,-38.893369],[-62.10551,-38.893653],[-62.105426,-38.893873],[-62.105301,-38.894188],[-62.105217,-38.894502],[-62.10517,-38.894932],[-62.104889,-38.894878],[-62.104486,-38.894875],[-62.10364,-38.894805],[-62.103595,-38.895152],[-62.103513,-38.895563],[-62.103912,-38.895564],[-62.104396,-38.895631],[-62.104758,-38.895697],[-62.105604,-38.895766],[-62.106014,-38.895857],[-62.10584,-38.896304],[-62.105715,-38.896618],[-62.105549,-38.896964],[-62.105218,-38.897592],[-62.105013,-38.897906],[-62.104766,-38.89825],[-62.10452,-38.898564],[-62.104315,-38.898814],[-62.103989,-38.899127],[-62.103702,-38.89944],[-62.103376,-38.899753],[-62.103016,-38.900084],[-62.102492,-38.900503],[-62.102082,-38.900799],[-62.101924,-38.900851],[-62.101905,-38.90116],[-62.102352,-38.900912],[-62.102963,-38.900506],[-62.103412,-38.9001],[-62.103779,-38.899756],[-62.104515,-38.899005],[-62.104801,-38.89866],[-62.105089,-38.898284],[-62.105582,-38.897532],[-62.105788,-38.897186],[-62.105995,-38.89681],[-62.106161,-38.896432],[-62.106328,-38.895992],[-62.106413,-38.895583],[-62.106497,-38.895363],[-62.106583,-38.894954],[-62.106792,-38.894325],[-62.106878,-38.893947],[-62.107003,-38.893602],[-62.107129,-38.893193],[-62.107215,-38.892815],[-62.107341,-38.892406],[-62.107426,-38.892028],[-62.107552,-38.891683],[-62.107678,-38.891274],[-62.107764,-38.890864],[-62.107847,-38.890613],[-62.108013,-38.890267],[-62.10846,-38.889987],[-62.108586,-38.88961],[-62.108669,-38.88939],[-62.108755,-38.88898],[-62.109216,-38.887597],[-62.109302,-38.887188],[-62.109679,-38.886056],[-62.109819,-38.885685],[-62.110024,-38.884971],[-62.110098,-38.884325],[-62.110209,-38.883012],[-62.109913,-38.883],[-62.109832,-38.883471],[-62.109742,-38.884227],[-62.109738,-38.884543],[-62.109653,-38.884952],[-62.109487,-38.885329],[-62.109312,-38.885813],[-62.108975,-38.885821],[-62.108557,-38.885829],[-62.10806,-38.885783],[-62.107709,-38.885536],[-62.107229,-38.885186],[-62.10699,-38.884995],[-62.106503,-38.884688],[-62.106033,-38.884621],[-62.105141,-38.884445],[-62.104699,-38.884346],[-62.104216,-38.88428],[-62.103813,-38.884214],[-62.103331,-38.884169],[-62.103133,-38.883736],[-62.103058,-38.883325],[-62.102709,-38.882187],[-62.102593,-38.881777],[-62.102515,-38.881587],[-62.10256,-38.88124],[-62.102645,-38.880894],[-62.10273,-38.880517],[-62.102815,-38.88017],[-62.102901,-38.879793],[-62.103026,-38.879447],[-62.103196,-38.878755],[-62.103281,-38.878377],[-62.103407,-38.878031],[-62.103492,-38.877685],[-62.103618,-38.877245],[-62.103704,-38.876867],[-62.103829,-38.87649],[-62.103995,-38.876113],[-62.104357,-38.876241],[-62.104838,-38.876466],[-62.10532,-38.876659],[-62.105841,-38.876883],[-62.106282,-38.877107],[-62.106763,-38.8773],[-62.107245,-38.877525],[-62.107726,-38.877717],[-62.108689,-38.878166],[-62.10917,-38.878359],[-62.109651,-38.878583],[-62.110132,-38.878839],[-62.110128,-38.879155],[-62.110043,-38.879564],[-62.110068,-38.879917],[-62.110485,-38.879931],[-62.110486,-38.879592],[-62.110487,-38.879252],[-62.110536,-38.878842],[-62.110569,-38.878596],[-62.109978,-38.878302],[-62.109456,-38.878109],[-62.109216,-38.877918],[-62.108937,-38.877632],[-62.108779,-38.877379],[-62.108702,-38.877126],[-62.108666,-38.876747],[-62.108629,-38.876526],[-62.108472,-38.876115],[-62.108353,-38.875988],[-62.107994,-38.875639],[-62.107676,-38.87529],[-62.107517,-38.875068],[-62.107205,-38.874246],[-62.106967,-38.873928],[-62.106649,-38.873548],[-62.106412,-38.873136],[-62.106084,-38.872952],[-62.105675,-38.873307],[-62.105324,-38.873065],[-62.104966,-38.872715],[-62.104807,-38.872525],[-62.104729,-38.872335],[-62.104692,-38.872019],[-62.104778,-38.87161],[-62.104944,-38.871233],[-62.10511,-38.870825],[-62.105195,-38.87051],[-62.10524,-38.870132],[-62.105406,-38.869755],[-62.105531,-38.869409],[-62.105616,-38.869063],[-62.105662,-38.868685],[-62.105747,-38.868307],[-62.105792,-38.867929],[-62.105958,-38.867552],[-62.106451,-38.866799],[-62.106779,-38.866424],[-62.107066,-38.866048],[-62.107312,-38.865671],[-62.107599,-38.865295],[-62.107846,-38.864918],[-62.108707,-38.86379],[-62.109034,-38.863414],[-62.110872,-38.861537],[-62.11128,-38.861161],[-62.111524,-38.860974],[-62.111809,-38.860787],[-62.112284,-38.860524],[-62.113183,-38.860054],[-62.11371,-38.859803],[-62.114257,-38.859586],[-62.114807,-38.859164],[-62.115226,-38.858776],[-62.115751,-38.858295],[-62.116515,-38.857634],[-62.116836,-38.857533],[-62.117445,-38.857086],[-62.117972,-38.856875],[-62.118581,-38.856719],[-62.11897,-38.856472],[-62.119394,-38.856267],[-62.119961,-38.855896],[-62.120898,-38.853775],[-62.121474,-38.852396],[-62.122123,-38.851776],[-62.122323,-38.851467],[-62.12245,-38.851225],[-62.122611,-38.850916],[-62.122987,-38.850243],[-62.123399,-38.849808],[-62.12405,-38.849202],[-62.125034,-38.848201],[-62.125643,-38.847398],[-62.12581,-38.846926],[-62.125855,-38.846485],[-62.126361,-38.844723],[-62.126527,-38.844283],[-62.126734,-38.843844],[-62.127021,-38.843436],[-62.12743,-38.843029],[-62.127919,-38.842528],[-62.128407,-38.842217],[-62.12897,-38.841926],[-62.129776,-38.842037],[-62.129983,-38.841882],[-62.13019,-38.841442],[-62.130314,-38.841222],[-62.130682,-38.840783],[-62.13105,-38.840376],[-62.131418,-38.839937],[-62.131623,-38.839655],[-62.132117,-38.838776],[-62.132283,-38.838368],[-62.13245,-38.837927],[-62.132657,-38.837488],[-62.132904,-38.83708],[-62.133149,-38.836766],[-62.133678,-38.83636],[-62.134167,-38.835922],[-62.134697,-38.835485],[-62.135226,-38.835079],[-62.135714,-38.834673],[-62.136244,-38.834204],[-62.140774,-38.830626],[-62.141143,-38.830155],[-62.141719,-38.829119],[-62.142226,-38.828084],[-62.14238,-38.827768],[-62.142425,-38.82739],[-62.142428,-38.82717],[-62.14204,-38.825874],[-62.141327,-38.82486],[-62.141333,-38.824356],[-62.141899,-38.824202],[-62.14218,-38.824299],[-62.142381,-38.824395],[-62.1435,-38.825128],[-62.143941,-38.825321],[-62.144383,-38.82545],[-62.144625,-38.825483],[-62.14515,-38.825393],[-62.145473,-38.8253],[-62.145716,-38.825176],[-62.14596,-38.824989],[-62.147469,-38.823518],[-62.148487,-38.822674],[-62.149801,-38.822061],[-62.151081,-38.821463],[-62.156066,-38.820097],[-62.158507,-38.82051],[-62.160939,-38.820684],[-62.162687,-38.820567],[-62.164353,-38.820561],[-62.170512,-38.821436],[-62.174175,-38.822345],[-62.177869,-38.822571],[-62.179695,-38.822171],[-62.181092,-38.821679],[-62.18221,-38.822237],[-62.184144,-38.823504],[-62.185176,-38.822674],[-62.160871,-38.80238],[-62.160632,-38.80218],[-62.137117,-38.782426],[-62.136383,-38.78181],[-62.131629,-38.777825],[-62.127059,-38.773994],[-62.126112,-38.7732],[-62.116842,-38.765426],[-62.116137,-38.764835],[-62.112572,-38.761905],[-62.107561,-38.757945],[-62.107064,-38.75743],[-62.099803,-38.751643],[-62.098515,-38.750579],[-62.097408,-38.749698],[-62.096211,-38.748726],[-62.095008,-38.747758],[-62.093818,-38.74678],[-62.092621,-38.745807],[-62.091425,-38.744835],[-62.090228,-38.743862],[-62.089032,-38.742889],[-62.087836,-38.741916],[-62.085443,-38.739971],[-62.083854,-38.738702],[-62.08148,-38.736732],[-62.080183,-38.735673],[-62.074717,-38.731355],[-62.074143,-38.73078],[-62.064982,-38.723256],[-62.060953,-38.719936],[-62.061983,-38.712327],[-62.055484,-38.711728],[-62.052452,-38.711616],[-62.050607,-38.711758],[-62.03502,-38.713697],[-62.030218,-38.714183],[-62.027402,-38.713497],[-62.020475,-38.710321],[-62.016259,-38.70793],[-62.013902,-38.7067],[-62.012403,-38.706752],[-61.996309,-38.710625],[-61.983894,-38.71251],[-61.97281,-38.714069],[-61.967514,-38.715792],[-61.964192,-38.716873],[-61.958027,-38.718792],[-61.955844,-38.719485],[-61.952939,-38.720664],[-61.939946,-38.725822],[-61.931153,-38.729224],[-61.926961,-38.730905],[-61.926732,-38.730716],[-61.923696,-38.728313],[-61.9236,-38.728237],[-61.8963,-38.706404],[-61.889681,-38.701073],[-61.883024,-38.695761],[-61.87645,-38.690447],[-61.87795,-38.689293],[-61.87427,-38.686262],[-61.870731,-38.683416],[-61.869083,-38.682101],[-61.862844,-38.677152],[-61.847932,-38.665357],[-61.846508,-38.666399],[-61.839653,-38.671661],[-61.833255,-38.6765],[-61.830458,-38.678739],[-61.82446,-38.683279],[-61.821729,-38.685385],[-61.818411,-38.687866],[-61.802419,-38.675126],[-61.800184,-38.673378],[-61.79637,-38.670241],[-61.791236,-38.666165],[-61.791017,-38.665976],[-61.786273,-38.662132],[-61.783082,-38.659596],[-61.762814,-38.643346],[-61.756697,-38.638503],[-61.747313,-38.630971],[-61.743985,-38.62832],[-61.743385,-38.627932],[-61.742084,-38.627006],[-61.740169,-38.628306]]]]},"geometry_name":"geom","properties":{"cca":"113","cde":"06182","fna":"Partido de Coronel Rosales","gna":"Partido","nam":"Coronel Rosales","sag":"ARBA","ara3":1283.36,"arl":1622.6},"bbox":[-62.185176,-39.004934,-61.442042,-38.627006]}],"totalFeatures":1,"numberMatched":1,"numberReturned":1,"timeStamp":"2026-09-22T18:30:14.673Z","crs":{"type":"name","properties":{"name":"urn:ogc:def:crs:EPSG::4326"}},"bbox":[-62.185176,-39.004934,-61.442042,-38.627006]}