{
"type": "FeatureCollection",
"name": "Cnel_Rosales_1",
"features": [
{ "type": "Feature", "properties": { "INDRA_D": "027", "INDEC_D": "182", "CIRCUITO": "0248B", "PROVINCIA": "Buenos Aires", "CABECERA": "Punta Alta", "DEPARTAMEN": "Cnel. de Marina L.Rosales", "INDRA_P": "02", "INDEC_P": "02", "SECC_PROV": "6", "ESTADO": "Ok SGE" }, "geometry": { "type": "MultiPolygon", "coordinates": [ [ [ [ -61.695472642211541, -38.805599739699574 ], [ -61.695904327797486, -38.808250592155602 ], [ -61.698300431765865, -38.810241942285813 ], [ -61.699129972963874, -38.812193255682672 ], [ -61.698807885698379, -38.813170758721164 ], [ -61.698356703237444, -38.814546459949469 ], [ -61.695236360492146, -38.818933744718308 ], [ -61.691867153807166, -38.822550008323994 ], [ -61.691299425804978, -38.825827830417367 ], [ -61.685799419765765, -38.828466722966354 ], [ -61.679393610994182, -38.828831058716624 ], [ -61.674799640866929, -38.831339490360747 ], [ -61.673695881074785, -38.834382014958585 ], [ -61.673444130919364, -38.838898138135193 ], [ -61.671626112136693, -38.843914713869545 ], [ -61.666903742157942, -38.846893243236657 ], [ -61.662004671291228, -38.851711840626123 ], [ -61.661402957127351, -38.856557405383427 ], [ -61.658177877660599, -38.860053085002335 ], [ -61.652667045166652, -38.861840134540252 ], [ -61.650548019652064, -38.864385880116579 ], [ -61.742846589302843, -38.929407087853129 ], [ -61.825217170979585, -38.987284721251854 ], [ -61.827164680089091, -38.986650063824186 ], [ -61.840913324350915, -38.980121620848799 ], [ -61.846859160995578, -38.977578967302279 ], [ -61.849228051572609, -38.973714103492327 ], [ -61.854901855073081, -38.971391813592774 ], [ -61.861427853891193, -38.969911781095476 ], [ -61.870276774563351, -38.968602664181027 ], [ -61.882028141978545, -38.968415255392564 ], [ -61.891349349291922, -38.969215466695502 ], [ -61.896110331579941, -38.968181827509035 ], [ -61.900992229751097, -38.96693007116297 ], [ -61.906834013972727, -38.965338190622411 ], [ -61.912145088869956, -38.964619617861537 ], [ -61.913333243896112, -38.96332106340536 ], [ -61.920373848166271, -38.960862563309234 ], [ -61.925565976035976, -38.960461288755717 ], [ -61.9309970855033, -38.959092297094713 ], [ -61.935701578777199, -38.95645641927436 ], [ -61.94110918180403, -38.954241183929611 ], [ -61.947063961851889, -38.951800619722022 ], [ -61.958485994281581, -38.949809825241317 ], [ -61.970165996096611, -38.947166283276239 ], [ -61.985993155354379, -38.946480382959201 ], [ -61.990234728336858, -38.945149014463141 ], [ -61.994821998420292, -38.944628729882801 ], [ -62.00272056328496, -38.943319254394559 ], [ -62.025069297533697, -38.936334045744502 ], [ -62.03983657587839, -38.932138899501552 ], [ -62.041598607768933, -38.931423904860573 ], [ -62.007479141838871, -38.907034643287581 ], [ -61.994650306415259, -38.915603365781209 ], [ -61.975829414022897, -38.901907203485997 ], [ -62.000338182134335, -38.896472757789866 ], [ -62.014174289324565, -38.891735426317219 ], [ -62.028273489635254, -38.885792995180012 ], [ -62.028489931494363, -38.885701718372111 ], [ -62.028685957964932, -38.885707276988398 ], [ -62.026405103663286, -38.883887962986279 ], [ -62.025221385158865, -38.882943703576245 ], [ -62.018145343302358, -38.877299102191849 ], [ -62.013274200394186, -38.873412862792655 ], [ -62.012560853723237, -38.872838632396146 ], [ -61.990235648223887, -38.854867269904076 ], [ -61.988124688959012, -38.853167988159228 ], [ -61.954237580436939, -38.826327808736664 ], [ -61.932317937334609, -38.809170406618563 ], [ -61.931852164647132, -38.809305224865085 ], [ -61.8720461630339, -38.767722579904415 ], [ -61.866792841343361, -38.764063737621015 ], [ -61.820439480540585, -38.73199184889738 ], [ -61.824753979454734, -38.726901448832827 ], [ -61.809394266128166, -38.714816203211569 ], [ -61.805140655578249, -38.718859782593491 ], [ -61.727398534464847, -38.661234763248871 ], [ -61.727331468725353, -38.661834011159804 ], [ -61.727573179003436, -38.663758091677806 ], [ -61.728499916279688, -38.665978197971029 ], [ -61.728044405170273, -38.668525022692876 ], [ -61.725209989324306, -38.670098163566387 ], [ -61.723551144307464, -38.671347648770571 ], [ -61.722113578141894, -38.674152253184666 ], [ -61.72394631123391, -38.677250714995786 ], [ -61.723914182234481, -38.679728202709597 ], [ -61.725119421813162, -38.683475555785698 ], [ -61.725548755095303, -38.68935107533391 ], [ -61.724380702315237, -38.695277094010251 ], [ -61.722633138021997, -38.698149158818069 ], [ -61.721534142368796, -38.701227854291197 ], [ -61.719169194100452, -38.704730489820051 ], [ -61.717280376835483, -38.708928602795901 ], [ -61.716452554914511, -38.711823162865286 ], [ -61.716027147008823, -38.713270560860671 ], [ -61.716795687748018, -38.714646349405122 ], [ -61.718068459641195, -38.716915324273877 ], [ -61.718464940746422, -38.72052135520196 ], [ -61.721121236775765, -38.723904936882072 ], [ -61.722627682651968, -38.725350910466325 ], [ -61.723715069785989, -38.727064278717918 ], [ -61.72417188654417, -38.729813674976128 ], [ -61.724538641938885, -38.732159153880566 ], [ -61.722663153227678, -38.735951812086995 ], [ -61.721345772706123, -38.742402391547557 ], [ -61.722352522177765, -38.747927031104041 ], [ -61.720744805836581, -38.752346214205183 ], [ -61.716810599428207, -38.756178248424689 ], [ -61.713619821039764, -38.759359741721873 ], [ -61.712157558438925, -38.763155333922349 ], [ -61.711851409662671, -38.767186020655956 ], [ -61.711206449146744, -38.768600676788431 ], [ -61.710179849402493, -38.77089459330503 ], [ -61.709983398628154, -38.771338879909756 ], [ -61.706658067440252, -38.775666265330557 ], [ -61.703738826915441, -38.779186047604512 ], [ -61.702076181402305, -38.787145888700053 ], [ -61.698237381182231, -38.793633564200917 ], [ -61.696480636933515, -38.80056789023871 ], [ -61.695284004848951, -38.804449596268903 ], [ -61.695472642211541, -38.805599739699574 ] ] ] ] } },
{ "type": "Feature", "properties": { "INDRA_D": "027", "INDEC_D": "182", "CIRCUITO": "0249A", "PROVINCIA": "Buenos Aires", "CABECERA": "Punta Alta", "DEPARTAMEN": "Cnel. de Marina L.Rosales", "INDRA_P": "02", "INDEC_P": "02", "SECC_PROV": "6", "ESTADO": "Ok SGE" }, "geometry": { "type": "MultiPolygon", "coordinates": [ [ [ [ -62.128480972235593, -38.842043961529185 ], [ -62.12983150732807, -38.839380606155927 ], [ -62.135654287798651, -38.833418401736637 ], [ -62.140326375301477, -38.829828288909411 ], [ -62.143366035369972, -38.826367377119027 ], [ -62.147644043308027, -38.823522934016658 ], [ -62.149905582980004, -38.821778726435248 ], [ -62.152873565268763, -38.820552767061514 ], [ -62.157006216775699, -38.817494848627263 ], [ -62.162279912318873, -38.816009968400245 ], [ -62.165504275513555, -38.814148764823635 ], [ -62.168079890036758, -38.813668623138874 ], [ -62.171081069861572, -38.813937153302554 ], [ -62.173325371474725, -38.815804930636816 ], [ -62.176329692709224, -38.818054854886782 ], [ -62.180048005631939, -38.819174774865033 ], [ -62.181488070389499, -38.817706937895714 ], [ -62.182715643229976, -38.814189582495615 ], [ -62.151334871223924, -38.791714926932947 ], [ -62.118514315278041, -38.767763309891791 ], [ -62.110599830937943, -38.761151828661497 ], [ -62.102923404655193, -38.754730053956713 ], [ -62.076849541944469, -38.732888538527007 ], [ -62.076130777252928, -38.732288816854975 ], [ -62.074740121953013, -38.731115362833414 ], [ -61.994438264116567, -38.790500613557683 ], [ -61.994965497397253, -38.790927976357452 ], [ -62.052657908400953, -38.8376048589258 ], [ -62.055581310565557, -38.839958178693848 ], [ -62.056972585233055, -38.841086531814433 ], [ -62.064506929898783, -38.847177630766453 ], [ -62.068740561157945, -38.85060673055775 ], [ -62.06881477914532, -38.850550398406732 ], [ -62.099431824645123, -38.827311772680808 ], [ -62.101326865930517, -38.825873418507584 ], [ -62.104053811609376, -38.822116293350049 ], [ -62.109590871379304, -38.826289149988256 ], [ -62.118899551572234, -38.834153379806423 ], [ -62.128480972235593, -38.842043961529185 ] ] ] ] } },
{ "type": "Feature", "properties": { "INDRA_D": "027", "INDEC_D": "182", "CIRCUITO": "0249B", "PROVINCIA": "Buenos Aires", "CABECERA": "Punta Alta", "DEPARTAMEN": "Cnel. de Marina L.Rosales", "INDRA_P": "02", "INDEC_P": "02", "SECC_PROV": "6", "ESTADO": "Ok SGE" }, "geometry": { "type": "MultiPolygon", "coordinates": [ [ [ [ -62.123080165012283, -38.850187383183531 ], [ -62.126091264684668, -38.846465934948853 ], [ -62.127383454550831, -38.844208347807808 ], [ -62.128480972235593, -38.842043961529185 ], [ -62.118899551572234, -38.834153379806423 ], [ -62.109590871379304, -38.826289149988256 ], [ -62.104053811609376, -38.822116293350049 ], [ -62.101326865930517, -38.825873418507584 ], [ -62.099431824645123, -38.827311772680808 ], [ -62.098998235297699, -38.828215083821284 ], [ -62.097714279409018, -38.830301512140387 ], [ -62.096751312492508, -38.832548434945579 ], [ -62.096013806525747, -38.835317845106481 ], [ -62.094047458001349, -38.842701684463378 ], [ -62.098009154670272, -38.843333079869993 ], [ -62.100681775439348, -38.843743084192518 ], [ -62.104159219508198, -38.844289756622558 ], [ -62.105118973653049, -38.844418317389689 ], [ -62.105723310071916, -38.844517536801739 ], [ -62.106181255563044, -38.844584881726902 ], [ -62.108456672222097, -38.846339778235198 ], [ -62.109185189966965, -38.84687907059179 ], [ -62.109625943808567, -38.847205342916091 ], [ -62.110795215395036, -38.848101278287544 ], [ -62.112161896470127, -38.849240179183454 ], [ -62.112860422352952, -38.852064653405314 ], [ -62.113118573222692, -38.853294666372896 ], [ -62.113167433166879, -38.853357714710214 ], [ -62.113235152682776, -38.853651703402249 ], [ -62.113654683629726, -38.855473000449713 ], [ -62.114351379985763, -38.858497547328696 ], [ -62.116073810637211, -38.857108072394212 ], [ -62.119971677214764, -38.85395851687182 ], [ -62.120157851881494, -38.853808083952153 ], [ -62.122069329165335, -38.851448940635017 ], [ -62.123080165012283, -38.850187383183531 ] ] ] ] } },
{ "type": "Feature", "properties": { "INDRA_D": "027", "INDEC_D": "182", "CIRCUITO": "0248F", "PROVINCIA": "Buenos Aires", "CABECERA": "Punta Alta", "DEPARTAMEN": "Cnel. de Marina L.Rosales", "INDRA_P": "02", "INDEC_P": "02", "SECC_PROV": "6", "ESTADO": "Ok SGE" }, "geometry": { "type": "MultiPolygon", "coordinates": [ [ [ [ -62.025221385158865, -38.882943703576245 ], [ -62.026405103663286, -38.883887962986279 ], [ -62.028685957964932, -38.885707276988398 ], [ -62.028489931494363, -38.885701718372111 ], [ -62.028273489635254, -38.885792995180012 ], [ -62.014174289324565, -38.891735426317219 ], [ -62.000338182134335, -38.896472757789866 ], [ -61.975829414022897, -38.901907203485997 ], [ -61.994650306415259, -38.915603365781209 ], [ -62.007479141838871, -38.907034643287581 ], [ -62.041598607768933, -38.931423904860573 ], [ -62.049695492178252, -38.928137931694891 ], [ -62.06377217076804, -38.918955992819924 ], [ -62.066130430068498, -38.915609138885486 ], [ -62.067183163311682, -38.914545781462664 ], [ -62.068614713222381, -38.911845626098092 ], [ -62.070114826820543, -38.911504089163536 ], [ -62.072495754853414, -38.913695944817228 ], [ -62.072663078577968, -38.919430324498087 ], [ -62.071261483899626, -38.922760445399447 ], [ -62.071047265787513, -38.924898758793574 ], [ -62.073643217498038, -38.924961266962264 ], [ -62.073907521776761, -38.908744436263703 ], [ -62.073624041972543, -38.906533690731528 ], [ -62.075727084500372, -38.903551518046562 ], [ -62.079541247405551, -38.903124289571437 ], [ -62.081244323031171, -38.904607488847049 ], [ -62.084266644651059, -38.905085784965657 ], [ -62.094180276679111, -38.900038883742148 ], [ -62.092315434037921, -38.898153227322609 ], [ -62.091228420341544, -38.896064730989721 ], [ -62.092588519877204, -38.89568051319273 ], [ -62.095544186445451, -38.897826280391762 ], [ -62.096805054076356, -38.895633417168504 ], [ -62.100803170249442, -38.896391778612006 ], [ -62.10239791843015, -38.894976694062251 ], [ -62.106747588868892, -38.895152493309951 ], [ -62.10822093780537, -38.889631541796511 ], [ -62.109350147964399, -38.888845073670787 ], [ -62.109434072844522, -38.887006159441292 ], [ -62.110420740870325, -38.884520198506863 ], [ -62.108419005127516, -38.884638315543441 ], [ -62.107175547821114, -38.883895368572453 ], [ -62.104921060510641, -38.883637822670174 ], [ -62.103458682081992, -38.883276249202041 ], [ -62.103628070038646, -38.880814412510681 ], [ -62.104811767201085, -38.870156483195117 ], [ -62.108962172493847, -38.862841847038347 ], [ -62.109446116246126, -38.862454595473167 ], [ -62.11182837846701, -38.860532838193407 ], [ -62.114351379985763, -38.858497547328696 ], [ -62.113654683629726, -38.855473000449713 ], [ -62.113235152682776, -38.853651703402249 ], [ -62.113167433166879, -38.853357714710214 ], [ -62.113118573222692, -38.853294666372896 ], [ -62.112860422352952, -38.852064653405314 ], [ -62.112161896470127, -38.849240179183454 ], [ -62.110795215395036, -38.848101278287544 ], [ -62.109625943808567, -38.847205342916091 ], [ -62.109185189966965, -38.84687907059179 ], [ -62.108456672222097, -38.846339778235198 ], [ -62.106181255563044, -38.844584881726902 ], [ -62.105723310071916, -38.844517536801739 ], [ -62.105118973653049, -38.844418317389689 ], [ -62.104159219508198, -38.844289756622558 ], [ -62.100681775439348, -38.843743084192518 ], [ -62.098009154670272, -38.843333079869993 ], [ -62.094047458001349, -38.842701684463378 ], [ -62.092819197583424, -38.84731392766539 ], [ -62.087924115757836, -38.865610299079073 ], [ -62.086535601718239, -38.87051638201897 ], [ -62.084312989820923, -38.878369610722828 ], [ -62.080300627668798, -38.893375845171768 ], [ -62.079118088402844, -38.892879941608626 ], [ -62.077812963134484, -38.892332631012216 ], [ -62.075164804114081, -38.893696834143938 ], [ -62.072436397850637, -38.893135103442638 ], [ -62.065133898733777, -38.898752410455614 ], [ -62.045473324188372, -38.899153646670825 ], [ -62.025572007913837, -38.882943703576245 ], [ -62.025221385158865, -38.882943703576245 ] ] ] ] } },
{ "type": "Feature", "properties": { "INDRA_D": "027", "INDEC_D": "182", "CIRCUITO": "0248D", "PROVINCIA": "Buenos Aires", "CABECERA": "Punta Alta", "DEPARTAMEN": "Cnel. de Marina L.Rosales", "INDRA_P": "02", "INDEC_P": "02", "SECC_PROV": "6", "ESTADO": "Ok SGE" }, "geometry": { "type": "MultiPolygon", "coordinates": [ [ [ [ -62.06881477914532, -38.850550398406732 ], [ -62.068740561157945, -38.85060673055775 ], [ -62.064506929898783, -38.847177630766453 ], [ -62.056972585233055, -38.841086531814433 ], [ -62.055581310565557, -38.839958178693848 ], [ -62.052657908400953, -38.8376048589258 ], [ -61.994965497397253, -38.790927976357452 ], [ -61.980233965005688, -38.802164090555159 ], [ -61.980048972291364, -38.805457909335558 ], [ -61.975584905090194, -38.809067347909568 ], [ -62.03520793324973, -38.857293899824157 ], [ -62.051956685454797, -38.870750162279514 ], [ -62.058572685698188, -38.875796264160066 ], [ -62.069218279612748, -38.867673892279434 ], [ -62.079859201474278, -38.859555085080338 ], [ -62.06881477914532, -38.850550398406732 ] ] ] ] } },
{ "type": "Feature", "properties": { "INDRA_D": "027", "INDEC_D": "182", "CIRCUITO": "0248", "PROVINCIA": "Buenos Aires", "CABECERA": "Punta Alta", "DEPARTAMEN": "Cnel. de Marina L.Rosales", "INDRA_P": "02", "INDEC_P": "02", "SECC_PROV": "6", "ESTADO": "Ok SGE" }, "geometry": { "type": "MultiPolygon", "coordinates": [ [ [ [ -62.079118088402844, -38.892879941608626 ], [ -62.080300627668798, -38.893375845171768 ], [ -62.084312989820923, -38.878369610722828 ], [ -62.086535601718239, -38.87051638201897 ], [ -62.069218279612748, -38.867673892279434 ], [ -62.058572685698188, -38.875796264160066 ], [ -62.060402637421454, -38.87719199005069 ], [ -62.079118088402844, -38.892879941608626 ] ] ] ] } },
{ "type": "Feature", "properties": { "INDRA_D": "027", "INDEC_D": "182", "CIRCUITO": "0248E", "PROVINCIA": "Buenos Aires", "CABECERA": "Punta Alta", "DEPARTAMEN": "Cnel. de Marina L.Rosales", "INDRA_P": "02", "INDEC_P": "02", "SECC_PROV": "6", "ESTADO": "Ok SGE" }, "geometry": { "type": "MultiPolygon", "coordinates": [ [ [ [ -62.086535601718239, -38.87051638201897 ], [ -62.087924115757836, -38.865610299079073 ], [ -62.092819197583424, -38.84731392766539 ], [ -62.094047458001349, -38.842701684463378 ], [ -62.096013806525747, -38.835317845106481 ], [ -62.096751312492508, -38.832548434945579 ], [ -62.097714279409018, -38.830301512140387 ], [ -62.098998235297699, -38.828215083821284 ], [ -62.099431824645123, -38.827311772680808 ], [ -62.06881477914532, -38.850550398406732 ], [ -62.079859201474278, -38.859555085080338 ], [ -62.069218279612748, -38.867673892279434 ], [ -62.086535601718239, -38.87051638201897 ] ] ] ] } },
{ "type": "Feature", "properties": { "INDRA_D": "027", "INDEC_D": "182", "CIRCUITO": "0248C", "PROVINCIA": "Buenos Aires", "CABECERA": "Punta Alta", "DEPARTAMEN": "Cnel. de Marina L.Rosales", "INDRA_P": "02", "INDEC_P": "02", "SECC_PROV": "6", "ESTADO": "Ok SGE" }, "geometry": { "type": "MultiPolygon", "coordinates": [ [ [ [ -61.990235648223887, -38.854867269904076 ], [ -62.012560853723237, -38.872838632396146 ], [ -62.012557577551782, -38.872841085040186 ], [ -62.013274200394186, -38.873412862792655 ], [ -62.018145343302358, -38.877299102191849 ], [ -62.025221385158865, -38.882943703576245 ], [ -62.025572007913837, -38.882943703576245 ], [ -62.045473324188372, -38.899153646670825 ], [ -62.065133898733777, -38.898752410455614 ], [ -62.072436397850637, -38.893135103442638 ], [ -62.075164804114081, -38.893696834143938 ], [ -62.077812963134484, -38.892332631012216 ], [ -62.079118088402844, -38.892879941608626 ], [ -62.060402637421454, -38.87719199005069 ], [ -62.058572685698188, -38.875796264160066 ], [ -62.051956685454797, -38.870750162279514 ], [ -62.03520793324973, -38.857293899824157 ], [ -61.975584905090194, -38.809067347909568 ], [ -61.954237580436939, -38.826327808736664 ], [ -61.988124688959012, -38.853167988159228 ], [ -61.990235648223887, -38.854867269904076 ] ] ] ] } },
{ "type": "Feature", "properties": { "INDRA_D": "027", "INDEC_D": "182", "CIRCUITO": "0249", "PROVINCIA": "Buenos Aires", "CABECERA": "Punta Alta", "DEPARTAMEN": "Cnel. de Marina L.Rosales", "INDRA_P": "02", "INDEC_P": "02", "SECC_PROV": "6", "ESTADO": "Ok SGE" }, "geometry": { "type": "MultiPolygon", "coordinates": [ [ [ [ -61.8720461630339, -38.767722579904415 ], [ -61.931852164647132, -38.809305224865085 ], [ -61.932317937334609, -38.809170406618563 ], [ -61.954237580436939, -38.826327808736664 ], [ -61.975584905090194, -38.809067347909568 ], [ -61.980048972291364, -38.805457909335558 ], [ -61.980233965005688, -38.802164090555159 ], [ -61.994965497397253, -38.790927976357452 ], [ -61.994438264116567, -38.790500613557683 ], [ -62.074740121953013, -38.731115362833414 ], [ -62.059978327574655, -38.718748093406866 ], [ -62.059577371049841, -38.718488701726287 ], [ -62.054064443627567, -38.714204369558111 ], [ -62.052954440406538, -38.713341738483486 ], [ -62.050935101034369, -38.711772423314258 ], [ -62.049542537371117, -38.711996844851079 ], [ -62.029514727065326, -38.713583916683085 ], [ -62.013033890198841, -38.705966559535206 ], [ -62.013011183207482, -38.705975969288914 ], [ -61.995941371855096, -38.710546461640014 ], [ -61.974482143599587, -38.713966765983237 ], [ -61.956742750485937, -38.719000212285827 ], [ -61.93311902362187, -38.728526950878525 ], [ -61.933096301985188, -38.728536337839145 ], [ -61.931073599301442, -38.729434705272467 ], [ -61.928198649522301, -38.73071654470256 ], [ -61.924187580570859, -38.727360755669586 ], [ -61.924175849571967, -38.727351973674224 ], [ -61.924152142841017, -38.727325396106146 ], [ -61.923081863991968, -38.72643347725338 ], [ -61.922588809280079, -38.726054446252363 ], [ -61.876075415066289, -38.690686481196188 ], [ -61.877453929776621, -38.689358703714944 ], [ -61.865538509918146, -38.67928662867736 ], [ -61.846599962055429, -38.665830313047813 ], [ -61.846306899623571, -38.666051032566436 ], [ -61.817892145930834, -38.687629093105592 ], [ -61.779897012329869, -38.657157010623926 ], [ -61.741589085035514, -38.626827603957111 ], [ -61.740766184596474, -38.627461264807245 ], [ -61.739520210666932, -38.629119067915759 ], [ -61.737637463430225, -38.631038406250248 ], [ -61.739629863322264, -38.633657125279655 ], [ -61.737874282238757, -38.63418751464026 ], [ -61.738720502681275, -38.6359404644245 ], [ -61.738769253122406, -38.637957449375712 ], [ -61.734444972537915, -38.63865187315843 ], [ -61.732058460569434, -38.639695955032884 ], [ -61.730008464978937, -38.641365659615197 ], [ -61.728919760601329, -38.642895017226252 ], [ -61.726687649719715, -38.643684585362593 ], [ -61.726018676459773, -38.645477913259278 ], [ -61.726305433810836, -38.648806491495733 ], [ -61.726714247629459, -38.653385172772367 ], [ -61.728143165225184, -38.655480825247672 ], [ -61.728159073752316, -38.657570255606281 ], [ -61.728153069160655, -38.657795606686499 ], [ -61.72809438050237, -38.65774240193948 ], [ -61.727652792526328, -38.658964947194335 ], [ -61.727398534464847, -38.661234763248871 ], [ -61.805140655578249, -38.718859782593491 ], [ -61.809394266128166, -38.714816203211569 ], [ -61.824753979454734, -38.726901448832827 ], [ -61.820439480540585, -38.73199184889738 ], [ -61.866792841343361, -38.764063737621015 ], [ -61.8720461630339, -38.767722579904415 ] ] ] ] } },
{ "type": "Feature", "properties": { "INDRA_D": "027", "INDEC_D": "182", "CIRCUITO": "0248A", "PROVINCIA": "Buenos Aires", "CABECERA": "Punta Alta", "DEPARTAMEN": "Cnel. de Marina L.Rosales", "INDRA_P": "02", "INDEC_P": "02", "SECC_PROV": "6", "ESTADO": "Ok SGE" }, "geometry": { "type": "MultiPolygon", "coordinates": [ [ [ [ -61.458859409084511, -38.961780559816113 ], [ -61.458326198131168, -38.995586134258204 ], [ -61.460000830093769, -38.995752300241378 ], [ -61.461268190481306, -38.995858626508969 ], [ -61.465874721715728, -38.996245095328362 ], [ -61.477545986453244, -38.997429862222731 ], [ -61.479401349755143, -38.997655772203572 ], [ -61.487995597888464, -38.998702212234555 ], [ -61.497752298969068, -38.999916883710938 ], [ -61.503225660522084, -39.000598296014488 ], [ -61.527090220531413, -39.003591670006536 ], [ -61.527817808934046, -39.003609458070905 ], [ -61.536571921577611, -39.003840466413671 ], [ -61.551449538525937, -39.004224180107222 ], [ -61.557737022614681, -39.004030154650827 ], [ -61.563808510729785, -39.003992185637912 ], [ -61.568852645589658, -39.003959283358725 ], [ -61.573457968998497, -39.003923372845492 ], [ -61.585494532120094, -39.003758843251006 ], [ -61.597937115098055, -39.003696824313295 ], [ -61.613094682355886, -39.002742080458333 ], [ -61.619927695408457, -39.002225314674 ], [ -61.635030267575182, -38.998938334461485 ], [ -61.642625771508399, -38.996492508584019 ], [ -61.65351312739157, -38.992684775390366 ], [ -61.653902248258539, -38.992543976209554 ], [ -61.660668748331233, -38.99017522631393 ], [ -61.664552609088425, -38.989433883278537 ], [ -61.666684974893677, -38.988817164736162 ], [ -61.668840973226338, -38.987731834642886 ], [ -61.669367364278678, -38.986066903070181 ], [ -61.670559096955763, -38.984716514521111 ], [ -61.67601070048039, -38.981466250848442 ], [ -61.680251493723716, -38.979251591943857 ], [ -61.683561674613266, -38.976735202219977 ], [ -61.687976536461832, -38.973121888337381 ], [ -61.689848880989061, -38.970815787069093 ], [ -61.691897550376872, -38.96865115005847 ], [ -61.69525961590503, -38.96689956327053 ], [ -61.698355234541289, -38.965593325613547 ], [ -61.702528143112005, -38.964955721448121 ], [ -61.716405578611244, -38.96488752637319 ], [ -61.736178486505061, -38.96864193965893 ], [ -61.746685181228116, -38.971802516018457 ], [ -61.761396396813659, -38.977000231163593 ], [ -61.783955857856867, -38.988026887591928 ], [ -61.788966099915996, -38.990371544078386 ], [ -61.794986873669657, -38.991583505422447 ], [ -61.804041153413131, -38.992712177578653 ], [ -61.80937953739658, -38.992953096648115 ], [ -61.813579053889654, -38.991077287869778 ], [ -61.825217170979585, -38.987284721251854 ], [ -61.742846589302843, -38.929407087853129 ], [ -61.650548019652064, -38.864385880116579 ], [ -61.649383018133612, -38.865785473269895 ], [ -61.64444882488398, -38.865628075324544 ], [ -61.63864120788481, -38.86355505313518 ], [ -61.634661380101683, -38.866338888887981 ], [ -61.628950729159122, -38.871542478409594 ], [ -61.622685845799126, -38.876222209143783 ], [ -61.617841656290487, -38.877027313528963 ], [ -61.611742454671756, -38.879921259425444 ], [ -61.607174426777007, -38.879704679756031 ], [ -61.602852912839914, -38.879691985899242 ], [ -61.598048291855413, -38.880235265623327 ], [ -61.597611599130097, -38.880286319547288 ], [ -61.592806092573404, -38.882342815982682 ], [ -61.590161676777221, -38.885711731068739 ], [ -61.585453964744637, -38.887523727720001 ], [ -61.579849299472578, -38.887888831559074 ], [ -61.575120579528239, -38.891898820750349 ], [ -61.568535161438447, -38.894844370678406 ], [ -61.558751118884352, -38.898095031158149 ], [ -61.551555849802597, -38.90431843052847 ], [ -61.546262549042495, -38.906354530258994 ], [ -61.545679467935543, -38.906578682595608 ], [ -61.544280972428979, -38.906417679052531 ], [ -61.540166933313685, -38.905929712110535 ], [ -61.532452575116089, -38.906316320770941 ], [ -61.52556005084751, -38.907944567081429 ], [ -61.519967164614449, -38.911600825049035 ], [ -61.514494710134009, -38.915525807893616 ], [ -61.508096891461264, -38.919876827931269 ], [ -61.50364466034209, -38.924122096026018 ], [ -61.50006092944249, -38.92913974178726 ], [ -61.491779679713659, -38.934055065962902 ], [ -61.487725366981429, -38.93707897237789 ], [ -61.480541303260139, -38.941592908311719 ], [ -61.474538587173939, -38.943020409481235 ], [ -61.467565539341159, -38.942145385179963 ], [ -61.462053180539854, -38.941021499021474 ], [ -61.462054998276194, -38.940894517235513 ], [ -61.459194150612809, -38.940557946922169 ], [ -61.458859409084511, -38.961780559816113 ] ] ] ] } }
]
}
